{
"type": "FeatureCollection",
"name": "Cambridge_metro_stations",
"crs": { "type": "name", "properties": { "name": "urn:ogc:def:crs:EPSG::6491" } },
"features": [
{ "type": "Feature", "properties": { "stop_id": "place-alfcl", "stop_name": "Alewife", "municipality": "Cambridge", "station_type": "Metro Rapid Transit", "modes_served": "Metro Rapid Transit; Bus", "multimodal": true, "dep_bus": 579, "dep_rapid_transit": 1501, "dep_commuter_rail": 0, "weekly_departures": 2080, "Count": 1 }, "geometry": { "type": "Point", "coordinates": [ 229533.785832098656101, 905097.573421915876679 ] } },
{ "type": "Feature", "properties": { "stop_id": "place-amory", "stop_name": "Amory Street", "municipality": "Boston", "station_type": "Metro Rapid Transit", "modes_served": "Metro Rapid Transit", "multimodal": false, "dep_bus": 0, "dep_rapid_transit": 1800, "dep_commuter_rail": 0, "weekly_departures": 1800, "Count": 1 }, "geometry": { "type": "Point", "coordinates": [ 231741.292209666746203, 900126.677899722475559 ] } },
{ "type": "Feature", "properties": { "stop_id": "place-babck", "stop_name": "Babcock Street", "municipality": "Boston", "station_type": "Metro Rapid Transit", "modes_served": "Metro Rapid Transit", "multimodal": false, "dep_bus": 0, "dep_rapid_transit": 1800, "dep_commuter_rail": 0, "weekly_departures": 1800, "Count": 1 }, "geometry": { "type": "Point", "coordinates": [ 231314.530457161134109, 900194.075771037256345 ] } },
{ "type": "Feature", "properties": { "stop_id": "place-bland", "stop_name": "Blandford Street", "municipality": "Boston", "station_type": "Metro Rapid Transit", "modes_served": "Metro Rapid Transit", "multimodal": false, "dep_bus": 0, "dep_rapid_transit": 1800, "dep_commuter_rail": 0, "weekly_departures": 1800, "Count": 1 }, "geometry": { "type": "Point", "coordinates": [ 232936.013450895727146, 899943.454535730415955 ] } },
{ "type": "Feature", "properties": { "stop_id": "place-bucen", "stop_name": "Boston University Central", "municipality": "Boston", "station_type": "Metro Rapid Transit", "modes_served": "Metro Rapid Transit", "multimodal": false, "dep_bus": 0, "dep_rapid_transit": 1800, "dep_commuter_rail": 0, "weekly_departures": 1800, "Count": 1 }, "geometry": { "type": "Point", "coordinates": [ 232391.241681894054636, 900028.562846537330188 ] } },
{ "type": "Feature", "properties": { "stop_id": "place-buest", "stop_name": "Boston University East", "municipality": "Boston", "station_type": "Metro Rapid Transit", "modes_served": "Metro Rapid Transit", "multimodal": false, "dep_bus": 0, "dep_rapid_transit": 1800, "dep_commuter_rail": 0, "weekly_departures": 1800, "Count": 1 }, "geometry": { "type": "Point", "coordinates": [ 232636.617986878845841, 899991.154125707689673 ] } },
{ "type": "Feature", "properties": { "stop_id": "place-ccmnl", "stop_name": "Community College", "municipality": "Boston", "station_type": "Metro Rapid Transit", "modes_served": "Metro Rapid Transit", "multimodal": false, "dep_bus": 0, "dep_rapid_transit": 2932, "dep_commuter_rail": 0, "weekly_departures": 2932, "Count": 1 }, "geometry": { "type": "Point", "coordinates": [ 235453.884900075005135, 902658.127779389615171 ] } },
{ "type": "Feature", "properties": { "stop_id": "place-chmnl", "stop_name": "Charles/MGH", "municipality": "Boston", "station_type": "Metro Rapid Transit", "modes_served": "Metro Rapid Transit", "multimodal": false, "dep_bus": 0, "dep_rapid_transit": 3002, "dep_commuter_rail": 0, "weekly_departures": 3002, "Count": 1 }, "geometry": { "type": "Point", "coordinates": [ 235370.66463137473329, 901274.116201002267189 ] } },
{ "type": "Feature", "properties": { "stop_id": "place-cntsq", "stop_name": "Central", "municipality": "Cambridge", "station_type": "Metro Rapid Transit", "modes_served": "Metro Rapid Transit", "multimodal": false, "dep_bus": 0, "dep_rapid_transit": 3002, "dep_commuter_rail": 0, "weekly_departures": 3002, "Count": 1 }, "geometry": { "type": "Point", "coordinates": [ 232635.659412985551171, 901740.73781486065127 ] } },
{ "type": "Feature", "properties": { "stop_id": "place-davis", "stop_name": "Davis", "municipality": "Somerville", "station_type": "Metro Rapid Transit", "modes_served": "Metro Rapid Transit; Bus", "multimodal": true, "dep_bus": 1504, "dep_rapid_transit": 3002, "dep_commuter_rail": 0, "weekly_departures": 4506, "Count": 1 }, "geometry": { "type": "Point", "coordinates": [ 231136.508460096170893, 905205.578309709439054 ] } },
{ "type": "Feature", "properties": { "stop_id": "place-harsq", "stop_name": "Harvard", "municipality": "Cambridge", "station_type": "Metro Rapid Transit", "modes_served": "Metro Rapid Transit; Bus", "multimodal": true, "dep_bus": 5094, "dep_rapid_transit": 3002, "dep_commuter_rail": 0, "weekly_departures": 8096, "Count": 1 }, "geometry": { "type": "Point", "coordinates": [ 231383.49296756478725, 902609.884293065872043 ] } },
{ "type": "Feature", "properties": { "stop_id": "place-kencl", "stop_name": "Kenmore", "municipality": "Boston", "station_type": "Metro Rapid Transit", "modes_served": "Metro Rapid Transit; Bus", "multimodal": true, "dep_bus": 1520, "dep_rapid_transit": 5506, "dep_commuter_rail": 0, "weekly_departures": 7026, "Count": 1 }, "geometry": { "type": "Point", "coordinates": [ 233355.490553865034599, 899907.222212859196588 ] } },
{ "type": "Feature", "properties": { "stop_id": "place-knncl", "stop_name": "Kendall/MIT", "municipality": "Cambridge", "station_type": "Metro Rapid Transit", "modes_served": "Metro Rapid Transit", "multimodal": false, "dep_bus": 0, "dep_rapid_transit": 3002, "dep_commuter_rail": 0, "weekly_departures": 3002, "Count": 1 }, "geometry": { "type": "Point", "coordinates": [ 234089.152823647658806, 901414.960517329163849 ] } },
{ "type": "Feature", "properties": { "stop_id": "place-lech", "stop_name": "Lechmere", "municipality": "Cambridge", "station_type": "Metro Rapid Transit", "modes_served": "Metro Rapid Transit; Bus", "multimodal": true, "dep_bus": 1137, "dep_rapid_transit": 3772, "dep_commuter_rail": 0, "weekly_departures": 4909, "Count": 1 }, "geometry": { "type": "Point", "coordinates": [ 234874.289504419488367, 902427.515766153810546 ] } },
{ "type": "Feature", "properties": { "stop_id": "place-north", "stop_name": "North Station", "municipality": "Boston", "station_type": "Metro Rapid Transit", "modes_served": "Metro Rapid Transit; Commuter Rail", "multimodal": true, "dep_bus": 0, "dep_rapid_transit": 6704, "dep_commuter_rail": 549, "weekly_departures": 7253, "Count": 1 }, "geometry": { "type": "Point", "coordinates": [ 236137.380556002142839, 901767.984122384921648 ] } },
{ "type": "Feature", "properties": { "stop_id": "place-portr", "stop_name": "Porter", "municipality": "Cambridge", "station_type": "Metro Rapid Transit", "modes_served": "Metro Rapid Transit; Commuter Rail", "multimodal": true, "dep_bus": 0, "dep_rapid_transit": 3002, "dep_commuter_rail": 222, "weekly_departures": 3224, "Count": 1 }, "geometry": { "type": "Point", "coordinates": [ 231360.138926462968811, 904280.177020573872142 ] } },
{ "type": "Feature", "properties": { "stop_id": "place-spmnl", "stop_name": "Science Park/West End", "municipality": "Boston", "station_type": "Metro Rapid Transit", "modes_served": "Metro Rapid Transit", "multimodal": false, "dep_bus": 0, "dep_rapid_transit": 3772, "dep_commuter_rail": 0, "weekly_departures": 3772, "Count": 1 }, "geometry": { "type": "Point", "coordinates": [ 235611.569802889949642, 901886.041494276607409 ] } },
{ "type": "Feature", "properties": { "stop_id": "place-unsqu", "stop_name": "Union Square", "municipality": "Somerville", "station_type": "Metro Rapid Transit", "modes_served": "Metro Rapid Transit", "multimodal": false, "dep_bus": 0, "dep_rapid_transit": 930, "dep_commuter_rail": 0, "weekly_departures": 930, "Count": 1 }, "geometry": { "type": "Point", "coordinates": [ 233374.114342292858055, 903063.03951563173905 ] } }
]
}
