{"type": "FeatureCollection", "crs": {"type": "name", "properties": {"name": "urn:ogc:def:crs:EPSG::6491"}}, "features": [{"type": "Feature", "geometry": {"type": "Point", "coordinates": [231334.43834763538, 903267.0266073112]}, "properties": {"name": "SOCRATIC SUMMER ACADEMY", "employees": 12, "existing": 0, "attract": 0.1701}}, {"type": "Feature", "geometry": {"type": "Point", "coordinates": [231563.82799309667, 903608.5089510251]}, "properties": {"name": "CAMBRIDGE PUBLIC SCHOOLS", "employees": 40, "existing": 0, "attract": 0.5668}}, {"type": "Feature", "geometry": {"type": "Point", "coordinates": [234163.10197288718, 902453.5681939635]}, "properties": {"name": "SCHOOL OF GROOVE", "employees": 40, "existing": 0, "attract": 0.5668}}, {"type": "Feature", "geometry": {"type": "Point", "coordinates": [234430.83574473343, 901973.3506326957]}, "properties": {"name": "FULD GILAD HERRING ACADEMY", "employees": 12, "existing": 0, "attract": 0.1701}}, {"type": "Feature", "geometry": {"type": "Point", "coordinates": [230961.10491545408, 903270.9250878713]}, "properties": {"name": "LONGY SCHOOL OF MASS", "employees": 38, "existing": 0, "attract": 0.5385}}, {"type": "Feature", "geometry": {"type": "Point", "coordinates": [231416.45615150034, 902918.9402422863]}, "properties": {"name": "SHADY HILL SCHOOL", "employees": 170, "existing": 0, "attract": 2.4091}}, {"type": "Feature", "geometry": {"type": "Point", "coordinates": [233168.7289631735, 902588.8727902896]}, "properties": {"name": "SNAPDRAGON MONTESSORI SCH INC", "employees": 18, "existing": 0, "attract": 0.2551}}, {"type": "Feature", "geometry": {"type": "Point", "coordinates": [231416.45615150034, 902918.9402422863]}, "properties": {"name": "HARVARD LAW SCHOOL", "employees": 37, "existing": 0, "attract": 0.5243}}, {"type": "Feature", "geometry": {"type": "Point", "coordinates": [234418.05807588337, 901269.1632500933]}, "properties": {"name": "MIT SLOAN SCHOOL OF MANAGEMENT", "employees": 1000, "existing": 0, "attract": 14.171}}, {"type": "Feature", "geometry": {"type": "Point", "coordinates": [229667.8054528066, 903835.1755006465]}, "properties": {"name": "JOHN M TOBIN MONTESSORI SCHOOL", "employees": 80, "existing": 0, "attract": 1.1337}}, {"type": "Feature", "geometry": {"type": "Point", "coordinates": [233124.5840173482, 902169.2328975281]}, "properties": {"name": "CAMBRIDGEPORT SCHOOL", "employees": 60, "existing": 0, "attract": 0.8503}}, {"type": "Feature", "geometry": {"type": "Point", "coordinates": [228609.32831307052, 903120.4391428789]}, "properties": {"name": "CAMBRIDGE PUBLIC SCHOOLS", "employees": 12, "existing": 0, "attract": 0.1701}}, {"type": "Feature", "geometry": {"type": "Point", "coordinates": [230394.34764042977, 903439.7326571028]}, "properties": {"name": "BB & N MIDDLE SCHOOL", "employees": 26, "existing": 0, "attract": 0.3684}}, {"type": "Feature", "geometry": {"type": "Point", "coordinates": [232873.6615217078, 901964.1147408677]}, "properties": {"name": "PROSPECT HILL CHARTER SCHOOL", "employees": 70, "existing": 0, "attract": 0.992}}, {"type": "Feature", "geometry": {"type": "Point", "coordinates": [233124.5840173482, 902169.2328975281]}, "properties": {"name": "FLETCHER SCHOOL", "employees": 22, "existing": 0, "attract": 0.3118}}, {"type": "Feature", "geometry": {"type": "Point", "coordinates": [232581.28084917157, 902293.9879233651]}, "properties": {"name": "WILD FLOWER MONTESSORI SCHOOL", "employees": 12, "existing": 0, "attract": 0.1701}}, {"type": "Feature", "geometry": {"type": "Point", "coordinates": [231880.62784359267, 901903.7772803227]}, "properties": {"name": "MARTIN LUTHER KING AFTER SCH", "employees": 3, "existing": 0, "attract": 0.0425}}, {"type": "Feature", "geometry": {"type": "Point", "coordinates": [233640.29259455713, 902547.572362797]}, "properties": {"name": "ASTER MONTESSORI SCHOOL", "employees": 12, "existing": 0, "attract": 0.1701}}, {"type": "Feature", "geometry": {"type": "Point", "coordinates": [233658.95760241762, 902451.0235999115]}, "properties": {"name": "MARTIN LUTHER KING JR OPEN SCH", "employees": 60, "existing": 0, "attract": 0.8503}}, {"type": "Feature", "geometry": {"type": "Point", "coordinates": [230392.3295272678, 904210.6081861814]}, "properties": {"name": "CAMBRIDGE FRIENDS SCHOOL", "employees": 55, "existing": 0, "attract": 0.7794}}, {"type": "Feature", "geometry": {"type": "Point", "coordinates": [231477.22557415912, 903601.5666954189]}, "properties": {"name": "AGASSIZ SCHOOL", "employees": 14, "existing": 0, "attract": 0.1984}}, {"type": "Feature", "geometry": {"type": "Point", "coordinates": [230600.37297481793, 904673.3762614811]}, "properties": {"name": "PEABODY K-2 AFTER-SCHOOL PRGM", "employees": 3, "existing": 0, "attract": 0.0425}}, {"type": "Feature", "geometry": {"type": "Point", "coordinates": [230359.88766825097, 905714.806529685]}, "properties": {"name": "CAMBRIDGE MATIGNON SCHOOL", "employees": 30, "existing": 0, "attract": 0.4251}}, {"type": "Feature", "geometry": {"type": "Point", "coordinates": [234188.74426725958, 901432.4393636626]}, "properties": {"name": "COALITION-SCH EDUCATING BOYS", "employees": 22, "existing": 0, "attract": 0.3118}}, {"type": "Feature", "geometry": {"type": "Point", "coordinates": [230654.61135819682, 904980.4120946111]}, "properties": {"name": "WILD ROSE MONTESSORI SCH INC", "employees": 12, "existing": 0, "attract": 0.1701}}, {"type": "Feature", "geometry": {"type": "Point", "coordinates": [230981.26244525315, 903686.1138843668]}, "properties": {"name": "GRAHAM & PARKS ELEMENTARY SCH", "employees": 100, "existing": 0, "attract": 1.4171}}, {"type": "Feature", "geometry": {"type": "Point", "coordinates": [230508.75878101948, 903472.4413723422]}, "properties": {"name": "ST PETER SCHOOL", "employees": 23, "existing": 0, "attract": 0.3259}}, {"type": "Feature", "geometry": {"type": "Point", "coordinates": [233658.95760241762, 902451.0235999115]}, "properties": {"name": "KING OPEN SCHOOL", "employees": 100, "existing": 1, "attract": 1.4171}}, {"type": "Feature", "geometry": {"type": "Point", "coordinates": [233288.49850653787, 901890.7570083584]}, "properties": {"name": "FLETCHER COMMUNITY SCHOOL", "employees": 22, "existing": 0, "attract": 0.3118}}, {"type": "Feature", "geometry": {"type": "Point", "coordinates": [229667.8054528066, 903835.1755006465]}, "properties": {"name": "TOBIN COMMUNITY SCHOOL", "employees": 8, "existing": 0, "attract": 0.1134}}, {"type": "Feature", "geometry": {"type": "Point", "coordinates": [231325.9873639047, 902539.6483647592]}, "properties": {"name": "ACADEMY AT HARVARD SQUARE", "employees": 5, "existing": 0, "attract": 0.0709}}, {"type": "Feature", "geometry": {"type": "Point", "coordinates": [229994.2071647257, 902414.3160224222]}, "properties": {"name": "BUCKINGHAM BROWNE-NICHOLS SCH", "employees": 72, "existing": 0, "attract": 1.0203}}, {"type": "Feature", "geometry": {"type": "Point", "coordinates": [230600.37297481793, 904673.3762614811]}, "properties": {"name": "FITZGERALD COMMUNITY SCHOOL", "employees": 25, "existing": 0, "attract": 0.3543}}, {"type": "Feature", "geometry": {"type": "Point", "coordinates": [228468.16428465067, 904604.7604435328]}, "properties": {"name": "FAYERWEATHER STREET SCHOOL", "employees": 52, "existing": 0, "attract": 0.7369}}, {"type": "Feature", "geometry": {"type": "Point", "coordinates": [234170.19307709803, 901994.7381093197]}, "properties": {"name": "COMMUNITY CHARTER SCHOOL", "employees": 39, "existing": 0, "attract": 0.5527}}, {"type": "Feature", "geometry": {"type": "Point", "coordinates": [231880.62784359267, 901903.7772803227]}, "properties": {"name": "DR MARTIN LUTHER KING JUNIOR", "employees": 20, "existing": 0, "attract": 0.2834}}, {"type": "Feature", "geometry": {"type": "Point", "coordinates": [234083.28318189122, 902183.371202603]}, "properties": {"name": "KENNEDY LONGFELLOW SCHOOL", "employees": 12, "existing": 0, "attract": 0.1701}}, {"type": "Feature", "geometry": {"type": "Point", "coordinates": [232847.46813150088, 901505.9060683905]}, "properties": {"name": "NUVU STUDIO", "employees": 11, "existing": 0, "attract": 0.1559}}, {"type": "Feature", "geometry": {"type": "Point", "coordinates": [233075.19833303976, 902039.2608637263]}, "properties": {"name": "VIOLETA MONTESSORI SCHOOL", "employees": 12, "existing": 0, "attract": 0.1701}}, {"type": "Feature", "geometry": {"type": "Point", "coordinates": [231908.6866083013, 900676.8265274175]}, "properties": {"name": "MORSE SCHOOL", "employees": 80, "existing": 0, "attract": 1.1337}}, {"type": "Feature", "geometry": {"type": "Point", "coordinates": [234301.55376389727, 901222.718272593]}, "properties": {"name": "MIT SLOAN SCHOOL OF MANAGEMENT", "employees": 37, "existing": 0, "attract": 0.5243}}, {"type": "Feature", "geometry": {"type": "Point", "coordinates": [231965.47593164782, 902735.249804018]}, "properties": {"name": "RINGE SCHOOL OF TECH ART", "employees": 600, "existing": 0, "attract": 8.5026}}, {"type": "Feature", "geometry": {"type": "Point", "coordinates": [232555.74255524628, 902312.7528309245]}, "properties": {"name": "SNOWDROP MONTESSORI SCHOOL INC", "employees": 18, "existing": 0, "attract": 0.2551}}, {"type": "Feature", "geometry": {"type": "Point", "coordinates": [233658.95760241762, 902451.0235999115]}, "properties": {"name": "CAMBRIDGE PUBLIC SCHOOLS", "employees": 200, "existing": 0, "attract": 2.8342}}, {"type": "Feature", "geometry": {"type": "Point", "coordinates": [230600.37297481793, 904673.3762614811]}, "properties": {"name": "PEABODY ELEMENTARY SCHOOL", "employees": 103, "existing": 1, "attract": 1.4596}}, {"type": "Feature", "geometry": {"type": "Point", "coordinates": [230981.26244525315, 903686.1138843668]}, "properties": {"name": "PEABODY ELEMENTARY SCHOOL", "employees": 60, "existing": 0, "attract": 0.8503}}, {"type": "Feature", "geometry": {"type": "Point", "coordinates": [230290.7310591707, 904283.7032568165]}, "properties": {"name": "CAMBRIDGE MONTESSORI SCHOOL", "employees": 12, "existing": 0, "attract": 0.1701}}, {"type": "Feature", "geometry": {"type": "Point", "coordinates": [234083.28318189122, 902183.371202603]}, "properties": {"name": "KENNEDY COMMUNITY SCHOOL", "employees": 50, "existing": 0, "attract": 0.7085}}, {"type": "Feature", "geometry": {"type": "Point", "coordinates": [233288.49850653787, 901890.7570083584]}, "properties": {"name": "FLETCHER MAYNARD ACADEMY", "employees": 80, "existing": 0, "attract": 1.1337}}, {"type": "Feature", "geometry": {"type": "Point", "coordinates": [231416.45615150034, 902918.9402422863]}, "properties": {"name": "HARVARD LAW SCHOOL", "employees": 12, "existing": 0, "attract": 0.1701}}, {"type": "Feature", "geometry": {"type": "Point", "coordinates": [230197.72033386995, 904466.5823222832]}, "properties": {"name": "CAMBRIDGE MONTESSORI SCHOOL", "employees": 15, "existing": 0, "attract": 0.2126}}, {"type": "Feature", "geometry": {"type": "Point", "coordinates": [232569.56826617903, 901480.1752126217]}, "properties": {"name": "JAMES F FARR ACADEMY INC", "employees": 22, "existing": 0, "attract": 0.3118}}, {"type": "Feature", "geometry": {"type": "Point", "coordinates": [230485.70985616726, 905025.7745225328]}, "properties": {"name": "NORTH CAMBRIDGE CATHOLIC HIGH", "employees": 12, "existing": 0, "attract": 0.1701}}, {"type": "Feature", "geometry": {"type": "Point", "coordinates": [230323.97715257763, 904688.9502742935]}, "properties": {"name": "BENJAMIN BANNEKER CHARTER PUBC", "employees": 70, "existing": 0, "attract": 0.992}}, {"type": "Feature", "geometry": {"type": "Point", "coordinates": [231965.47593164782, 902735.249804018]}, "properties": {"name": "CAMBRIDGE RINDGE & LATIN SCH", "employees": 350, "existing": 1, "attract": 4.9598}}, {"type": "Feature", "geometry": {"type": "Point", "coordinates": [228609.32831307052, 903120.4391428789]}, "properties": {"name": "HAGGERTY SCHOOL", "employees": 50, "existing": 0, "attract": 0.7085}}, {"type": "Feature", "geometry": {"type": "Point", "coordinates": [234349.77712874045, 901283.7135856936]}, "properties": {"name": "MIT SLOAN SCHOOL OF MANAGEMENT", "employees": 51, "existing": 0, "attract": 0.7227}}, {"type": "Feature", "geometry": {"type": "Point", "coordinates": [233724.2564206093, 902437.340887799]}, "properties": {"name": "CAMBRIDGE PUBLIC SCHOOLS", "employees": 1, "existing": 0, "attract": 0.0142}}, {"type": "Feature", "geometry": {"type": "Point", "coordinates": [231563.82799309667, 903608.5089510251]}, "properties": {"name": "BALDWIN ELEMENTARY SCHOOL", "employees": 39, "existing": 0, "attract": 0.5527}}, {"type": "Feature", "geometry": {"type": "Point", "coordinates": [231908.6866083013, 900676.8265274175]}, "properties": {"name": "MORSE AFTER SCHOOL", "employees": 11, "existing": 0, "attract": 0.1559}}]}