{
"type": "FeatureCollection",
"name": "Cambridge_transit_stations_MainSt800m_buffer",
"crs": { "type": "name", "properties": { "name": "urn:ogc:def:crs:EPSG::6491" } },
"features": [
{ "type": "Feature", "properties": { "stop_id": "11771", "stop_name": "Vassar St @ Massachusetts Ave", "municipality": "Cambridge", "station_type": "Bus", "modes_served": "Bus", "multimodal": false, "dep_bus": 160, "dep_rapid_transit": 0, "dep_commuter_rail": 0, "weekly_departures": 160 }, "geometry": { "type": "Point", "coordinates": [ 233378.705258833098924, 901160.402099656057544 ] } },
{ "type": "Feature", "properties": { "stop_id": "12231", "stop_name": "Galileo Way @ Main St", "municipality": "Cambridge", "station_type": "Bus", "modes_served": "Bus", "multimodal": false, "dep_bus": 145, "dep_rapid_transit": 0, "dep_commuter_rail": 0, "weekly_departures": 145 }, "geometry": { "type": "Point", "coordinates": [ 233800.267249174270546, 901498.206413948326372 ] } },
{ "type": "Feature", "properties": { "stop_id": "21773", "stop_name": "Vassar St @ Massachusetts Ave", "municipality": "Cambridge", "station_type": "Bus", "modes_served": "Bus", "multimodal": false, "dep_bus": 145, "dep_rapid_transit": 0, "dep_commuter_rail": 0, "weekly_departures": 145 }, "geometry": { "type": "Point", "coordinates": [ 233449.541391185950488, 901197.283629413112067 ] } },
{ "type": "Feature", "properties": { "stop_id": "2518", "stop_name": "Hampshire St @ Portland St", "municipality": "Cambridge", "station_type": "Bus", "modes_served": "Bus", "multimodal": false, "dep_bus": 160, "dep_rapid_transit": 0, "dep_commuter_rail": 0, "weekly_departures": 160 }, "geometry": { "type": "Point", "coordinates": [ 233639.291307309817057, 901810.563196645118296 ] } },
{ "type": "Feature", "properties": { "stop_id": "2521", "stop_name": "Hampshire St @ Cardinal Medeiros Ave", "municipality": "Cambridge", "station_type": "Bus", "modes_served": "Bus", "multimodal": false, "dep_bus": 145, "dep_rapid_transit": 0, "dep_commuter_rail": 0, "weekly_departures": 145 }, "geometry": { "type": "Point", "coordinates": [ 233603.005786339868791, 901870.927176789846271 ] } },
{ "type": "Feature", "properties": { "stop_id": "34579", "stop_name": "Ames St @ Main St", "municipality": "Cambridge", "station_type": "Bus", "modes_served": "Bus", "multimodal": false, "dep_bus": 160, "dep_rapid_transit": 0, "dep_commuter_rail": 0, "weekly_departures": 160 }, "geometry": { "type": "Point", "coordinates": [ 233924.261230117292143, 901477.476990296388976 ] } },
{ "type": "Feature", "properties": { "stop_id": "74", "stop_name": "Massachusetts Ave @ Albany St", "municipality": "Cambridge", "station_type": "Bus", "modes_served": "Bus", "multimodal": false, "dep_bus": 738, "dep_rapid_transit": 0, "dep_commuter_rail": 0, "weekly_departures": 738 }, "geometry": { "type": "Point", "coordinates": [ 233279.682195296394639, 901213.027697719051503 ] } },
{ "type": "Feature", "properties": { "stop_id": "75", "stop_name": "84 Massachusetts Ave", "municipality": "Cambridge", "station_type": "Bus", "modes_served": "Bus", "multimodal": false, "dep_bus": 738, "dep_rapid_transit": 0, "dep_commuter_rail": 0, "weekly_departures": 738 }, "geometry": { "type": "Point", "coordinates": [ 233483.655549131130101, 900987.952963973395526 ] } },
{ "type": "Feature", "properties": { "stop_id": "97", "stop_name": "77 Massachusetts Ave", "municipality": "Cambridge", "station_type": "Bus", "modes_served": "Bus", "multimodal": false, "dep_bus": 765, "dep_rapid_transit": 0, "dep_commuter_rail": 0, "weekly_departures": 765 }, "geometry": { "type": "Point", "coordinates": [ 233469.705135863099713, 901062.975232877884991 ] } },
{ "type": "Feature", "properties": { "stop_id": "99", "stop_name": "Massachusetts Ave @ Albany St", "municipality": "Cambridge", "station_type": "Bus", "modes_served": "Bus", "multimodal": false, "dep_bus": 765, "dep_rapid_transit": 0, "dep_commuter_rail": 0, "weekly_departures": 765 }, "geometry": { "type": "Point", "coordinates": [ 233303.71015702598379, 901218.695444636628963 ] } },
{ "type": "Feature", "properties": { "stop_id": "place-knncl", "stop_name": "Kendall/MIT", "municipality": "Cambridge", "station_type": "Metro Rapid Transit", "modes_served": "Metro Rapid Transit", "multimodal": false, "dep_bus": 0, "dep_rapid_transit": 3002, "dep_commuter_rail": 0, "weekly_departures": 3002 }, "geometry": { "type": "Point", "coordinates": [ 234089.152823647658806, 901414.960517329163849 ] } },
{ "type": "Feature", "properties": { "stop_id": "12232", "stop_name": "Main St @ Galileo Way", "municipality": "Cambridge", "station_type": "Bus", "modes_served": "Bus", "multimodal": false, "dep_bus": 360, "dep_rapid_transit": 0, "dep_commuter_rail": 0, "weekly_departures": 360 }, "geometry": { "type": "Point", "coordinates": [ 233841.881852484541014, 901443.86736524652224 ] } },
{ "type": "Feature", "properties": { "stop_id": "2231", "stop_name": "Main St @ Kendall Station - Red Line", "municipality": "Cambridge", "station_type": "Bus", "modes_served": "Bus", "multimodal": false, "dep_bus": 360, "dep_rapid_transit": 0, "dep_commuter_rail": 0, "weekly_departures": 360 }, "geometry": { "type": "Point", "coordinates": [ 234116.744780982087832, 901415.87198528368026 ] } },
{ "type": "Feature", "properties": { "stop_id": "24484", "stop_name": "Broadway @ Windsor St", "municipality": "Cambridge", "station_type": "Bus", "modes_served": "Bus", "multimodal": false, "dep_bus": 368, "dep_rapid_transit": 0, "dep_commuter_rail": 0, "weekly_departures": 368 }, "geometry": { "type": "Point", "coordinates": [ 233364.893318046000786, 901900.449952771887183 ] } },
{ "type": "Feature", "properties": { "stop_id": "24485", "stop_name": "Broadway opp Hampshire St", "municipality": "Cambridge", "station_type": "Bus", "modes_served": "Bus", "multimodal": false, "dep_bus": 368, "dep_rapid_transit": 0, "dep_commuter_rail": 0, "weekly_departures": 368 }, "geometry": { "type": "Point", "coordinates": [ 233658.836474101786735, 901737.011966030928306 ] } },
{ "type": "Feature", "properties": { "stop_id": "24486", "stop_name": "Broadway @ Hampshire St", "municipality": "Cambridge", "station_type": "Bus", "modes_served": "Bus", "multimodal": false, "dep_bus": 360, "dep_rapid_transit": 0, "dep_commuter_rail": 0, "weekly_departures": 360 }, "geometry": { "type": "Point", "coordinates": [ 233670.79830997766112, 901750.509740961133502 ] } },
{ "type": "Feature", "properties": { "stop_id": "24487", "stop_name": "Broadway @ Windsor St", "municipality": "Cambridge", "station_type": "Bus", "modes_served": "Bus", "multimodal": false, "dep_bus": 360, "dep_rapid_transit": 0, "dep_commuter_rail": 0, "weekly_departures": 360 }, "geometry": { "type": "Point", "coordinates": [ 233312.916918768256437, 901935.192944966605864 ] } }
]
}
