{
"type": "FeatureCollection",
"name": "MA_metro_stations",
"crs": { "type": "name", "properties": { "name": "urn:ogc:def:crs:EPSG::6491" } },
"features": [
{ "type": "Feature", "properties": { "stop_id": "place-alfcl", "stop_name": "Alewife", "municipality": "Cambridge", "station_type": "Metro Rapid Transit", "modes_served": "Metro Rapid Transit; Bus", "multimodal": true, "dep_bus": 579, "dep_rapid_transit": 1501, "dep_commuter_rail": 0, "weekly_departures": 2080, "Count": 1 }, "geometry": { "type": "Point", "coordinates": [ 229533.785832098656101, 905097.573421915876679 ] } },
{ "type": "Feature", "properties": { "stop_id": "place-alsgr", "stop_name": "Allston Street", "municipality": "Boston", "station_type": "Metro Rapid Transit", "modes_served": "Metro Rapid Transit", "multimodal": false, "dep_bus": 0, "dep_rapid_transit": 1800, "dep_commuter_rail": 0, "weekly_departures": 1800, "Count": 1 }, "geometry": { "type": "Point", "coordinates": [ 229830.33658356210799, 899863.827951511600986 ] } },
{ "type": "Feature", "properties": { "stop_id": "place-amory", "stop_name": "Amory Street", "municipality": "Boston", "station_type": "Metro Rapid Transit", "modes_served": "Metro Rapid Transit", "multimodal": false, "dep_bus": 0, "dep_rapid_transit": 1800, "dep_commuter_rail": 0, "weekly_departures": 1800, "Count": 1 }, "geometry": { "type": "Point", "coordinates": [ 231741.292209666746203, 900126.677899722475559 ] } },
{ "type": "Feature", "properties": { "stop_id": "place-andrw", "stop_name": "Andrew", "municipality": "Boston", "station_type": "Metro Rapid Transit", "modes_served": "Metro Rapid Transit; Bus", "multimodal": true, "dep_bus": 1820, "dep_rapid_transit": 3002, "dep_commuter_rail": 0, "weekly_departures": 4822, "Count": 1 }, "geometry": { "type": "Point", "coordinates": [ 236457.204833704076009, 897834.921562844421715 ] } },
{ "type": "Feature", "properties": { "stop_id": "place-aport", "stop_name": "Airport", "municipality": "Boston", "station_type": "Metro Rapid Transit", "modes_served": "Metro Rapid Transit; Bus", "multimodal": true, "dep_bus": 2137, "dep_rapid_transit": 2696, "dep_commuter_rail": 0, "weekly_departures": 4833, "Count": 1 }, "geometry": { "type": "Point", "coordinates": [ 238676.924603986088187, 902746.223575824289583 ] } },
{ "type": "Feature", "properties": { "stop_id": "place-armnl", "stop_name": "Arlington", "municipality": "Boston", "station_type": "Metro Rapid Transit", "modes_served": "Metro Rapid Transit", "multimodal": false, "dep_bus": 0, "dep_rapid_transit": 7402, "dep_commuter_rail": 0, "weekly_departures": 7402, "Count": 1 }, "geometry": { "type": "Point", "coordinates": [ 235354.011474671075121, 900245.004966248176061 ] } },
{ "type": "Feature", "properties": { "stop_id": "place-asmnl", "stop_name": "Ashmont", "municipality": "Boston", "station_type": "Metro Rapid Transit", "modes_served": "Metro Rapid Transit; Bus", "multimodal": true, "dep_bus": 3099, "dep_rapid_transit": 1600, "dep_commuter_rail": 0, "weekly_departures": 4699, "Count": 1 }, "geometry": { "type": "Point", "coordinates": [ 235978.569036826083902, 892763.569368409458548 ] } },
{ "type": "Feature", "properties": { "stop_id": "place-astao", "stop_name": "Assembly", "municipality": "Somerville", "station_type": "Metro Rapid Transit", "modes_served": "Metro Rapid Transit", "multimodal": false, "dep_bus": 0, "dep_rapid_transit": 2932, "dep_commuter_rail": 0, "weekly_departures": 2932, "Count": 1 }, "geometry": { "type": "Point", "coordinates": [ 234807.166454045946011, 904786.38324619922787 ] } },
{ "type": "Feature", "properties": { "stop_id": "place-babck", "stop_name": "Babcock Street", "municipality": "Boston", "station_type": "Metro Rapid Transit", "modes_served": "Metro Rapid Transit", "multimodal": false, "dep_bus": 0, "dep_rapid_transit": 1800, "dep_commuter_rail": 0, "weekly_departures": 1800, "Count": 1 }, "geometry": { "type": "Point", "coordinates": [ 231314.530457161134109, 900194.075771037256345 ] } },
{ "type": "Feature", "properties": { "stop_id": "place-balsq", "stop_name": "Ball Square", "municipality": "Medford", "station_type": "Metro Rapid Transit", "modes_served": "Metro Rapid Transit", "multimodal": false, "dep_bus": 0, "dep_rapid_transit": 2027, "dep_commuter_rail": 0, "weekly_departures": 2027, "Count": 1 }, "geometry": { "type": "Point", "coordinates": [ 232025.074496423068922, 905559.361729777301662 ] } },
{ "type": "Feature", "properties": { "stop_id": "place-bbsta", "stop_name": "Back Bay", "municipality": "Boston", "station_type": "Metro Rapid Transit", "modes_served": "Metro Rapid Transit; Commuter Rail; Bus", "multimodal": true, "dep_bus": 687, "dep_rapid_transit": 2932, "dep_commuter_rail": 1087, "weekly_departures": 4706, "Count": 1 }, "geometry": { "type": "Point", "coordinates": [ 234958.257813074596925, 899737.398589576594532 ] } },
{ "type": "Feature", "properties": { "stop_id": "place-bckhl", "stop_name": "Back of the Hill", "municipality": "Boston", "station_type": "Metro Rapid Transit", "modes_served": "Metro Rapid Transit", "multimodal": false, "dep_bus": 0, "dep_rapid_transit": 1896, "dep_commuter_rail": 0, "weekly_departures": 1896, "Count": 1 }, "geometry": { "type": "Point", "coordinates": [ 232034.858332259813324, 897811.711954667349346 ] } },
{ "type": "Feature", "properties": { "stop_id": "place-bcnfd", "stop_name": "Beaconsfield", "municipality": "Brookline", "station_type": "Metro Rapid Transit", "modes_served": "Metro Rapid Transit", "multimodal": false, "dep_bus": 0, "dep_rapid_transit": 1848, "dep_commuter_rail": 0, "weekly_departures": 1848, "Count": 1 }, "geometry": { "type": "Point", "coordinates": [ 229630.40962332172785, 898426.085958970477805 ] } },
{ "type": "Feature", "properties": { "stop_id": "place-bcnwa", "stop_name": "Washington Square", "municipality": "Brookline", "station_type": "Metro Rapid Transit", "modes_served": "Metro Rapid Transit", "multimodal": false, "dep_bus": 0, "dep_rapid_transit": 1858, "dep_commuter_rail": 0, "weekly_departures": 1858, "Count": 1 }, "geometry": { "type": "Point", "coordinates": [ 230051.039314238529187, 898830.970910971751437 ] } },
{ "type": "Feature", "properties": { "stop_id": "place-bland", "stop_name": "Blandford Street", "municipality": "Boston", "station_type": "Metro Rapid Transit", "modes_served": "Metro Rapid Transit", "multimodal": false, "dep_bus": 0, "dep_rapid_transit": 1800, "dep_commuter_rail": 0, "weekly_departures": 1800, "Count": 1 }, "geometry": { "type": "Point", "coordinates": [ 232936.013450895727146, 899943.454535730415955 ] } },
{ "type": "Feature", "properties": { "stop_id": "place-bndhl", "stop_name": "Brandon Hall", "municipality": "Brookline", "station_type": "Metro Rapid Transit", "modes_served": "Metro Rapid Transit", "multimodal": false, "dep_bus": 0, "dep_rapid_transit": 1858, "dep_commuter_rail": 0, "weekly_departures": 1858, "Count": 1 }, "geometry": { "type": "Point", "coordinates": [ 230565.605703507637372, 898903.057345523498952 ] } },
{ "type": "Feature", "properties": { "stop_id": "place-boyls", "stop_name": "Boylston", "municipality": "Boston", "station_type": "Metro Rapid Transit", "modes_served": "Metro Rapid Transit", "multimodal": false, "dep_bus": 0, "dep_rapid_transit": 7402, "dep_commuter_rail": 0, "weekly_departures": 7402, "Count": 1 }, "geometry": { "type": "Point", "coordinates": [ 235872.675571871193824, 900371.818661259720102 ] } },
{ "type": "Feature", "properties": { "stop_id": "place-brdwy", "stop_name": "Broadway", "municipality": "Boston", "station_type": "Metro Rapid Transit", "modes_served": "Metro Rapid Transit", "multimodal": false, "dep_bus": 0, "dep_rapid_transit": 3002, "dep_commuter_rail": 0, "weekly_departures": 3002, "Count": 1 }, "geometry": { "type": "Point", "coordinates": [ 236506.714713966008276, 899220.095151505549438 ] } },
{ "type": "Feature", "properties": { "stop_id": "place-brico", "stop_name": "Packard's Corner", "municipality": "Boston", "station_type": "Metro Rapid Transit", "modes_served": "Metro Rapid Transit", "multimodal": false, "dep_bus": 0, "dep_rapid_transit": 1800, "dep_commuter_rail": 0, "weekly_departures": 1800, "Count": 1 }, "geometry": { "type": "Point", "coordinates": [ 230893.595137791737216, 900231.200944508891553 ] } },
{ "type": "Feature", "properties": { "stop_id": "place-brkhl", "stop_name": "Brookline Hills", "municipality": "Brookline", "station_type": "Metro Rapid Transit", "modes_served": "Metro Rapid Transit", "multimodal": false, "dep_bus": 0, "dep_rapid_transit": 1848, "dep_commuter_rail": 0, "weekly_departures": 1848, "Count": 1 }, "geometry": { "type": "Point", "coordinates": [ 230767.527629354328383, 897936.788801531190984 ] } },
{ "type": "Feature", "properties": { "stop_id": "place-brmnl", "stop_name": "Brigham Circle", "municipality": "Boston", "station_type": "Metro Rapid Transit", "modes_served": "Metro Rapid Transit", "multimodal": false, "dep_bus": 0, "dep_rapid_transit": 1896, "dep_commuter_rail": 0, "weekly_departures": 1896, "Count": 1 }, "geometry": { "type": "Point", "coordinates": [ 232585.279684431996429, 898268.547844113199972 ] } },
{ "type": "Feature", "properties": { "stop_id": "place-brntn", "stop_name": "Braintree", "municipality": "Braintree", "station_type": "Metro Rapid Transit", "modes_served": "Metro Rapid Transit; Commuter Rail; Bus", "multimodal": true, "dep_bus": 656, "dep_rapid_transit": 747, "dep_commuter_rail": 369, "weekly_departures": 1772, "Count": 1 }, "geometry": { "type": "Point", "coordinates": [ 241194.624119848012924, 884276.421174506889656 ] } },
{ "type": "Feature", "properties": { "stop_id": "place-bucen", "stop_name": "Boston University Central", "municipality": "Boston", "station_type": "Metro Rapid Transit", "modes_served": "Metro Rapid Transit", "multimodal": false, "dep_bus": 0, "dep_rapid_transit": 1800, "dep_commuter_rail": 0, "weekly_departures": 1800, "Count": 1 }, "geometry": { "type": "Point", "coordinates": [ 232391.241681894054636, 900028.562846537330188 ] } },
{ "type": "Feature", "properties": { "stop_id": "place-buest", "stop_name": "Boston University East", "municipality": "Boston", "station_type": "Metro Rapid Transit", "modes_served": "Metro Rapid Transit", "multimodal": false, "dep_bus": 0, "dep_rapid_transit": 1800, "dep_commuter_rail": 0, "weekly_departures": 1800, "Count": 1 }, "geometry": { "type": "Point", "coordinates": [ 232636.617986878845841, 899991.154125707689673 ] } },
{ "type": "Feature", "properties": { "stop_id": "place-butlr", "stop_name": "Butler", "municipality": "Boston", "station_type": "Metro Rapid Transit", "modes_served": "Metro Rapid Transit", "multimodal": false, "dep_bus": 0, "dep_rapid_transit": 1692, "dep_commuter_rail": 0, "weekly_departures": 1692, "Count": 1 }, "geometry": { "type": "Point", "coordinates": [ 236089.212997047899989, 891421.112317840452306 ] } },
{ "type": "Feature", "properties": { "stop_id": "place-bvmnl", "stop_name": "Brookline Village", "municipality": "Brookline", "station_type": "Metro Rapid Transit", "modes_served": "Metro Rapid Transit", "multimodal": false, "dep_bus": 0, "dep_rapid_transit": 1848, "dep_commuter_rail": 0, "weekly_departures": 1848, "Count": 1 }, "geometry": { "type": "Point", "coordinates": [ 231576.703386313456576, 898083.888685955666006 ] } },
{ "type": "Feature", "properties": { "stop_id": "place-capst", "stop_name": "Capen Street", "municipality": "Milton", "station_type": "Metro Rapid Transit", "modes_served": "Metro Rapid Transit", "multimodal": false, "dep_bus": 0, "dep_rapid_transit": 1692, "dep_commuter_rail": 0, "weekly_departures": 1692, "Count": 1 }, "geometry": { "type": "Point", "coordinates": [ 234044.445292604272254, 890870.426099598873407 ] } },
{ "type": "Feature", "properties": { "stop_id": "place-ccmnl", "stop_name": "Community College", "municipality": "Boston", "station_type": "Metro Rapid Transit", "modes_served": "Metro Rapid Transit", "multimodal": false, "dep_bus": 0, "dep_rapid_transit": 2932, "dep_commuter_rail": 0, "weekly_departures": 2932, "Count": 1 }, "geometry": { "type": "Point", "coordinates": [ 235453.884900075005135, 902658.127779389615171 ] } },
{ "type": "Feature", "properties": { "stop_id": "place-cedgr", "stop_name": "Cedar Grove", "municipality": "Boston", "station_type": "Metro Rapid Transit", "modes_served": "Metro Rapid Transit", "multimodal": false, "dep_bus": 0, "dep_rapid_transit": 1692, "dep_commuter_rail": 0, "weekly_departures": 1692, "Count": 1 }, "geometry": { "type": "Point", "coordinates": [ 236260.387780904740794, 892221.741572293569334 ] } },
{ "type": "Feature", "properties": { "stop_id": "place-cenav", "stop_name": "Central Avenue", "municipality": "Milton", "station_type": "Metro Rapid Transit", "modes_served": "Metro Rapid Transit", "multimodal": false, "dep_bus": 0, "dep_rapid_transit": 1692, "dep_commuter_rail": 0, "weekly_departures": 1692, "Count": 1 }, "geometry": { "type": "Point", "coordinates": [ 235189.316501275257906, 891149.749514851951972 ] } },
{ "type": "Feature", "properties": { "stop_id": "place-chhil", "stop_name": "Chestnut Hill", "municipality": "Newton", "station_type": "Metro Rapid Transit", "modes_served": "Metro Rapid Transit", "multimodal": false, "dep_bus": 0, "dep_rapid_transit": 1838, "dep_commuter_rail": 0, "weekly_departures": 1838, "Count": 1 }, "geometry": { "type": "Point", "coordinates": [ 227636.386619318596786, 897416.938131192349829 ] } },
{ "type": "Feature", "properties": { "stop_id": "place-chill", "stop_name": "Chestnut Hill Avenue", "municipality": "Boston", "station_type": "Metro Rapid Transit", "modes_served": "Metro Rapid Transit", "multimodal": false, "dep_bus": 0, "dep_rapid_transit": 1800, "dep_commuter_rail": 0, "weekly_departures": 1800, "Count": 1 }, "geometry": { "type": "Point", "coordinates": [ 228582.299818562401924, 898688.775426139356568 ] } },
{ "type": "Feature", "properties": { "stop_id": "place-chmnl", "stop_name": "Charles/MGH", "municipality": "Boston", "station_type": "Metro Rapid Transit", "modes_served": "Metro Rapid Transit", "multimodal": false, "dep_bus": 0, "dep_rapid_transit": 3002, "dep_commuter_rail": 0, "weekly_departures": 3002, "Count": 1 }, "geometry": { "type": "Point", "coordinates": [ 235370.66463137473329, 901274.116201002267189 ] } },
{ "type": "Feature", "properties": { "stop_id": "place-chncl", "stop_name": "Chinatown", "municipality": "Boston", "station_type": "Metro Rapid Transit", "modes_served": "Metro Rapid Transit", "multimodal": false, "dep_bus": 0, "dep_rapid_transit": 2932, "dep_commuter_rail": 0, "weekly_departures": 2932, "Count": 1 }, "geometry": { "type": "Point", "coordinates": [ 236024.373211569647538, 900320.054757237667218 ] } },
{ "type": "Feature", "properties": { "stop_id": "place-chswk", "stop_name": "Chiswick Road", "municipality": "Boston", "station_type": "Metro Rapid Transit", "modes_served": "Metro Rapid Transit", "multimodal": false, "dep_bus": 0, "dep_rapid_transit": 1800, "dep_commuter_rail": 0, "weekly_departures": 1800, "Count": 1 }, "geometry": { "type": "Point", "coordinates": [ 228782.916237804311095, 898982.393558228388429 ] } },
{ "type": "Feature", "properties": { "stop_id": "place-clmnl", "stop_name": "Cleveland Circle", "municipality": "Boston", "station_type": "Metro Rapid Transit", "modes_served": "Metro Rapid Transit", "multimodal": false, "dep_bus": 0, "dep_rapid_transit": 929, "dep_commuter_rail": 0, "weekly_departures": 929, "Count": 1 }, "geometry": { "type": "Point", "coordinates": [ 228899.174968752660789, 898464.917704966384917 ] } },
{ "type": "Feature", "properties": { "stop_id": "place-cntsq", "stop_name": "Central", "municipality": "Cambridge", "station_type": "Metro Rapid Transit", "modes_served": "Metro Rapid Transit", "multimodal": false, "dep_bus": 0, "dep_rapid_transit": 3002, "dep_commuter_rail": 0, "weekly_departures": 3002, "Count": 1 }, "geometry": { "type": "Point", "coordinates": [ 232635.659412985551171, 901740.73781486065127 ] } },
{ "type": "Feature", "properties": { "stop_id": "place-coecl", "stop_name": "Copley", "municipality": "Boston", "station_type": "Metro Rapid Transit", "modes_served": "Metro Rapid Transit", "multimodal": false, "dep_bus": 0, "dep_rapid_transit": 7402, "dep_commuter_rail": 0, "weekly_departures": 7402, "Count": 1 }, "geometry": { "type": "Point", "coordinates": [ 234815.094525103573687, 900028.156216994742863 ] } },
{ "type": "Feature", "properties": { "stop_id": "place-cool", "stop_name": "Coolidge Corner", "municipality": "Brookline", "station_type": "Metro Rapid Transit", "modes_served": "Metro Rapid Transit", "multimodal": false, "dep_bus": 0, "dep_rapid_transit": 1858, "dep_commuter_rail": 0, "weekly_departures": 1858, "Count": 1 }, "geometry": { "type": "Point", "coordinates": [ 231208.896200859220698, 899138.369212263147347 ] } },
{ "type": "Feature", "properties": { "stop_id": "place-davis", "stop_name": "Davis", "municipality": "Somerville", "station_type": "Metro Rapid Transit", "modes_served": "Metro Rapid Transit; Bus", "multimodal": true, "dep_bus": 1504, "dep_rapid_transit": 3002, "dep_commuter_rail": 0, "weekly_departures": 4506, "Count": 1 }, "geometry": { "type": "Point", "coordinates": [ 231136.508460096170893, 905205.578309709439054 ] } },
{ "type": "Feature", "properties": { "stop_id": "place-denrd", "stop_name": "Dean Road", "municipality": "Brookline", "station_type": "Metro Rapid Transit", "modes_served": "Metro Rapid Transit", "multimodal": false, "dep_bus": 0, "dep_rapid_transit": 1858, "dep_commuter_rail": 0, "weekly_departures": 1858, "Count": 1 }, "geometry": { "type": "Point", "coordinates": [ 229514.247556083690142, 898652.416867343010381 ] } },
{ "type": "Feature", "properties": { "stop_id": "place-dwnxg", "stop_name": "Downtown Crossing", "municipality": "Boston", "station_type": "Metro Rapid Transit", "modes_served": "Metro Rapid Transit", "multimodal": false, "dep_bus": 0, "dep_rapid_transit": 5934, "dep_commuter_rail": 0, "weekly_departures": 5934, "Count": 1 }, "geometry": { "type": "Point", "coordinates": [ 236230.866599528031657, 900651.1293658495415 ] } },
{ "type": "Feature", "properties": { "stop_id": "place-eliot", "stop_name": "Eliot", "municipality": "Newton", "station_type": "Metro Rapid Transit", "modes_served": "Metro Rapid Transit", "multimodal": false, "dep_bus": 0, "dep_rapid_transit": 1838, "dep_commuter_rail": 0, "weekly_departures": 1838, "Count": 1 }, "geometry": { "type": "Point", "coordinates": [ 223354.507792506046826, 896545.232296807924286 ] } },
{ "type": "Feature", "properties": { "stop_id": "place-engav", "stop_name": "Englewood Avenue", "municipality": "Brookline", "station_type": "Metro Rapid Transit", "modes_served": "Metro Rapid Transit", "multimodal": false, "dep_bus": 0, "dep_rapid_transit": 1858, "dep_commuter_rail": 0, "weekly_departures": 1858, "Count": 1 }, "geometry": { "type": "Point", "coordinates": [ 229200.90713521730504, 898558.247648939024657 ] } },
{ "type": "Feature", "properties": { "stop_id": "place-esomr", "stop_name": "East Somerville", "municipality": "Somerville", "station_type": "Metro Rapid Transit", "modes_served": "Metro Rapid Transit", "multimodal": false, "dep_bus": 0, "dep_rapid_transit": 2027, "dep_commuter_rail": 0, "weekly_departures": 2027, "Count": 1 }, "geometry": { "type": "Point", "coordinates": [ 234043.027834431413794, 903300.402933650300838 ] } },
{ "type": "Feature", "properties": { "stop_id": "place-fbkst", "stop_name": "Fairbanks Street", "municipality": "Brookline", "station_type": "Metro Rapid Transit", "modes_served": "Metro Rapid Transit", "multimodal": false, "dep_bus": 0, "dep_rapid_transit": 1858, "dep_commuter_rail": 0, "weekly_departures": 1858, "Count": 1 }, "geometry": { "type": "Point", "coordinates": [ 230401.680963786930079, 898869.245369809446856 ] } },
{ "type": "Feature", "properties": { "stop_id": "place-fenwd", "stop_name": "Fenwood Road", "municipality": "Boston", "station_type": "Metro Rapid Transit", "modes_served": "Metro Rapid Transit", "multimodal": false, "dep_bus": 0, "dep_rapid_transit": 1896, "dep_commuter_rail": 0, "weekly_departures": 1896, "Count": 1 }, "geometry": { "type": "Point", "coordinates": [ 232493.328945262881462, 898210.028764218091965 ] } },
{ "type": "Feature", "properties": { "stop_id": "place-fenwy", "stop_name": "Fenway", "municipality": "Boston", "station_type": "Metro Rapid Transit", "modes_served": "Metro Rapid Transit", "multimodal": false, "dep_bus": 0, "dep_rapid_transit": 1848, "dep_commuter_rail": 0, "weekly_departures": 1848, "Count": 1 }, "geometry": { "type": "Point", "coordinates": [ 232612.155732163053472, 899509.852144536096603 ] } },
{ "type": "Feature", "properties": { "stop_id": "place-fldcr", "stop_name": "Fields Corner", "municipality": "Boston", "station_type": "Metro Rapid Transit", "modes_served": "Metro Rapid Transit; Bus", "multimodal": true, "dep_bus": 1561, "dep_rapid_transit": 1508, "dep_commuter_rail": 0, "weekly_departures": 3069, "Count": 1 }, "geometry": { "type": "Point", "coordinates": [ 236143.705766617669724, 894494.212273931247182 ] } },
{ "type": "Feature", "properties": { "stop_id": "place-forhl", "stop_name": "Forest Hills", "municipality": "Boston", "station_type": "Metro Rapid Transit", "modes_served": "Metro Rapid Transit; Commuter Rail; Bus", "multimodal": true, "dep_bus": 5968, "dep_rapid_transit": 1466, "dep_commuter_rail": 257, "weekly_departures": 7691, "Count": 1 }, "geometry": { "type": "Point", "coordinates": [ 231832.893636408785824, 894542.247528981533833 ] } },
{ "type": "Feature", "properties": { "stop_id": "place-gilmn", "stop_name": "Gilman Square", "municipality": "Somerville", "station_type": "Metro Rapid Transit", "modes_served": "Metro Rapid Transit", "multimodal": false, "dep_bus": 0, "dep_rapid_transit": 2027, "dep_commuter_rail": 0, "weekly_departures": 2027, "Count": 1 }, "geometry": { "type": "Point", "coordinates": [ 233203.440639618842397, 904236.220245666801929 ] } },
{ "type": "Feature", "properties": { "stop_id": "place-gover", "stop_name": "Government Center", "municipality": "Boston", "station_type": "Metro Rapid Transit", "modes_served": "Metro Rapid Transit", "multimodal": false, "dep_bus": 0, "dep_rapid_transit": 8283, "dep_commuter_rail": 0, "weekly_departures": 8283, "Count": 1 }, "geometry": { "type": "Point", "coordinates": [ 236311.671338978921995, 901116.630849040229805 ] } },
{ "type": "Feature", "properties": { "stop_id": "place-grigg", "stop_name": "Griggs Street", "municipality": "Boston", "station_type": "Metro Rapid Transit", "modes_served": "Metro Rapid Transit", "multimodal": false, "dep_bus": 0, "dep_rapid_transit": 1800, "dep_commuter_rail": 0, "weekly_departures": 1800, "Count": 1 }, "geometry": { "type": "Point", "coordinates": [ 230078.08560874525574, 899847.555822095251642 ] } },
{ "type": "Feature", "properties": { "stop_id": "place-grnst", "stop_name": "Green Street", "municipality": "Boston", "station_type": "Metro Rapid Transit", "modes_served": "Metro Rapid Transit", "multimodal": false, "dep_bus": 0, "dep_rapid_transit": 2932, "dep_commuter_rail": 0, "weekly_departures": 2932, "Count": 1 }, "geometry": { "type": "Point", "coordinates": [ 232366.231832582241623, 895634.565754903946072 ] } },
{ "type": "Feature", "properties": { "stop_id": "place-haecl", "stop_name": "Haymarket", "municipality": "Boston", "station_type": "Metro Rapid Transit", "modes_served": "Metro Rapid Transit", "multimodal": false, "dep_bus": 0, "dep_rapid_transit": 6704, "dep_commuter_rail": 0, "weekly_departures": 6704, "Count": 1 }, "geometry": { "type": "Point", "coordinates": [ 236385.964333497307962, 901485.350788854877464 ] } },
{ "type": "Feature", "properties": { "stop_id": "place-harsq", "stop_name": "Harvard", "municipality": "Cambridge", "station_type": "Metro Rapid Transit", "modes_served": "Metro Rapid Transit; Bus", "multimodal": true, "dep_bus": 5094, "dep_rapid_transit": 3002, "dep_commuter_rail": 0, "weekly_departures": 8096, "Count": 1 }, "geometry": { "type": "Point", "coordinates": [ 231383.49296756478725, 902609.884293065872043 ] } },
{ "type": "Feature", "properties": { "stop_id": "place-harvd", "stop_name": "Harvard Avenue", "municipality": "Boston", "station_type": "Metro Rapid Transit", "modes_served": "Metro Rapid Transit", "multimodal": false, "dep_bus": 0, "dep_rapid_transit": 1800, "dep_commuter_rail": 0, "weekly_departures": 1800, "Count": 1 }, "geometry": { "type": "Point", "coordinates": [ 230373.393382534093689, 900037.435568853281438 ] } },
{ "type": "Feature", "properties": { "stop_id": "place-hsmnl", "stop_name": "Heath Street", "municipality": "Boston", "station_type": "Metro Rapid Transit", "modes_served": "Metro Rapid Transit", "multimodal": false, "dep_bus": 0, "dep_rapid_transit": 943, "dep_commuter_rail": 0, "weekly_departures": 943, "Count": 1 }, "geometry": { "type": "Point", "coordinates": [ 232123.228620882058749, 897609.621507407864556 ] } },
{ "type": "Feature", "properties": { "stop_id": "place-hwsst", "stop_name": "Hawes Street", "municipality": "Brookline", "station_type": "Metro Rapid Transit", "modes_served": "Metro Rapid Transit", "multimodal": false, "dep_bus": 0, "dep_rapid_transit": 1858, "dep_commuter_rail": 0, "weekly_departures": 1858, "Count": 1 }, "geometry": { "type": "Point", "coordinates": [ 232041.226735651231138, 899452.020567761268467 ] } },
{ "type": "Feature", "properties": { "stop_id": "place-hymnl", "stop_name": "Hynes Convention Center", "municipality": "Boston", "station_type": "Metro Rapid Transit", "modes_served": "Metro Rapid Transit", "multimodal": false, "dep_bus": 0, "dep_rapid_transit": 5506, "dep_commuter_rail": 0, "weekly_departures": 5506, "Count": 1 }, "geometry": { "type": "Point", "coordinates": [ 233954.72734701866284, 899792.238347818376496 ] } },
{ "type": "Feature", "properties": { "stop_id": "place-jaksn", "stop_name": "Jackson Square", "municipality": "Boston", "station_type": "Metro Rapid Transit", "modes_served": "Metro Rapid Transit; Bus", "multimodal": true, "dep_bus": 2311, "dep_rapid_transit": 2932, "dep_commuter_rail": 0, "weekly_departures": 5243, "Count": 1 }, "geometry": { "type": "Point", "coordinates": [ 233004.527951644413406, 897037.879737303592265 ] } },
{ "type": "Feature", "properties": { "stop_id": "place-jfk", "stop_name": "JFK/UMass", "municipality": "Boston", "station_type": "Metro Rapid Transit", "modes_served": "Metro Rapid Transit; Commuter Rail; Bus", "multimodal": true, "dep_bus": 920, "dep_rapid_transit": 3002, "dep_commuter_rail": 165, "weekly_departures": 4087, "Count": 1 }, "geometry": { "type": "Point", "coordinates": [ 236896.568804231763352, 896785.421373764402233 ] } },
{ "type": "Feature", "properties": { "stop_id": "place-kencl", "stop_name": "Kenmore", "municipality": "Boston", "station_type": "Metro Rapid Transit", "modes_served": "Metro Rapid Transit; Bus", "multimodal": true, "dep_bus": 1520, "dep_rapid_transit": 5506, "dep_commuter_rail": 0, "weekly_departures": 7026, "Count": 1 }, "geometry": { "type": "Point", "coordinates": [ 233355.490553865034599, 899907.222212859196588 ] } },
{ "type": "Feature", "properties": { "stop_id": "place-knncl", "stop_name": "Kendall/MIT", "municipality": "Cambridge", "station_type": "Metro Rapid Transit", "modes_served": "Metro Rapid Transit", "multimodal": false, "dep_bus": 0, "dep_rapid_transit": 3002, "dep_commuter_rail": 0, "weekly_departures": 3002, "Count": 1 }, "geometry": { "type": "Point", "coordinates": [ 234089.152823647658806, 901414.960517329163849 ] } },
{ "type": "Feature", "properties": { "stop_id": "place-kntst", "stop_name": "Kent Street", "municipality": "Brookline", "station_type": "Metro Rapid Transit", "modes_served": "Metro Rapid Transit", "multimodal": false, "dep_bus": 0, "dep_rapid_transit": 1858, "dep_commuter_rail": 0, "weekly_departures": 1858, "Count": 1 }, "geometry": { "type": "Point", "coordinates": [ 231790.164999192464165, 899358.463980975328013 ] } },
{ "type": "Feature", "properties": { "stop_id": "place-lake", "stop_name": "Boston College", "municipality": "Boston", "station_type": "Metro Rapid Transit", "modes_served": "Metro Rapid Transit", "multimodal": false, "dep_bus": 0, "dep_rapid_transit": 900, "dep_commuter_rail": 0, "weekly_departures": 900, "Count": 1 }, "geometry": { "type": "Point", "coordinates": [ 227459.989028597628931, 898896.680765673634596 ] } },
{ "type": "Feature", "properties": { "stop_id": "place-lech", "stop_name": "Lechmere", "municipality": "Cambridge", "station_type": "Metro Rapid Transit", "modes_served": "Metro Rapid Transit; Bus", "multimodal": true, "dep_bus": 1137, "dep_rapid_transit": 3772, "dep_commuter_rail": 0, "weekly_departures": 4909, "Count": 1 }, "geometry": { "type": "Point", "coordinates": [ 234874.289504419488367, 902427.515766153810546 ] } },
{ "type": "Feature", "properties": { "stop_id": "place-lngmd", "stop_name": "Longwood Medical Area", "municipality": "Boston", "station_type": "Metro Rapid Transit", "modes_served": "Metro Rapid Transit", "multimodal": false, "dep_bus": 0, "dep_rapid_transit": 1896, "dep_commuter_rail": 0, "weekly_departures": 1896, "Count": 1 }, "geometry": { "type": "Point", "coordinates": [ 232959.930527875811094, 898462.56949037942104 ] } },
{ "type": "Feature", "properties": { "stop_id": "place-longw", "stop_name": "Longwood", "municipality": "Brookline", "station_type": "Metro Rapid Transit", "modes_served": "Metro Rapid Transit", "multimodal": false, "dep_bus": 0, "dep_rapid_transit": 1848, "dep_commuter_rail": 0, "weekly_departures": 1848, "Count": 1 }, "geometry": { "type": "Point", "coordinates": [ 232140.825765377900098, 899096.582959179300815 ] } },
{ "type": "Feature", "properties": { "stop_id": "place-masta", "stop_name": "Massachusetts Avenue", "municipality": "Boston", "station_type": "Metro Rapid Transit", "modes_served": "Metro Rapid Transit", "multimodal": false, "dep_bus": 0, "dep_rapid_transit": 2932, "dep_commuter_rail": 0, "weekly_departures": 2932, "Count": 1 }, "geometry": { "type": "Point", "coordinates": [ 234327.31284913836862, 899085.816803985624574 ] } },
{ "type": "Feature", "properties": { "stop_id": "place-matt", "stop_name": "Mattapan", "municipality": "Boston", "station_type": "Metro Rapid Transit", "modes_served": "Metro Rapid Transit; Bus", "multimodal": true, "dep_bus": 2545, "dep_rapid_transit": 846, "dep_commuter_rail": 0, "weekly_departures": 3391, "Count": 1 }, "geometry": { "type": "Point", "coordinates": [ 233619.710413221619092, 890874.715360997011885 ] } },
{ "type": "Feature", "properties": { "stop_id": "place-mdftf", "stop_name": "Medford/Tufts", "municipality": "Medford", "station_type": "Metro Rapid Transit", "modes_served": "Metro Rapid Transit", "multimodal": false, "dep_bus": 0, "dep_rapid_transit": 961, "dep_commuter_rail": 0, "weekly_departures": 961, "Count": 1 }, "geometry": { "type": "Point", "coordinates": [ 231523.706064972357126, 906455.27798917889595 ] } },
{ "type": "Feature", "properties": { "stop_id": "place-mfa", "stop_name": "Museum of Fine Arts", "municipality": "Boston", "station_type": "Metro Rapid Transit", "modes_served": "Metro Rapid Transit", "multimodal": false, "dep_bus": 0, "dep_rapid_transit": 1896, "dep_commuter_rail": 0, "weekly_departures": 1896, "Count": 1 }, "geometry": { "type": "Point", "coordinates": [ 233333.149267466389574, 898658.826031733769923 ] } },
{ "type": "Feature", "properties": { "stop_id": "place-mgngl", "stop_name": "Magoun Square", "municipality": "Somerville", "station_type": "Metro Rapid Transit", "modes_served": "Metro Rapid Transit", "multimodal": false, "dep_bus": 0, "dep_rapid_transit": 2027, "dep_commuter_rail": 0, "weekly_departures": 2027, "Count": 1 }, "geometry": { "type": "Point", "coordinates": [ 232408.193934021663154, 904871.652768577099778 ] } },
{ "type": "Feature", "properties": { "stop_id": "place-miltt", "stop_name": "Milton", "municipality": "Milton", "station_type": "Metro Rapid Transit", "modes_served": "Metro Rapid Transit", "multimodal": false, "dep_bus": 0, "dep_rapid_transit": 1692, "dep_commuter_rail": 0, "weekly_departures": 1692, "Count": 1 }, "geometry": { "type": "Point", "coordinates": [ 235698.793207981041633, 891188.082323922077194 ] } },
{ "type": "Feature", "properties": { "stop_id": "place-mispk", "stop_name": "Mission Park", "municipality": "Boston", "station_type": "Metro Rapid Transit", "modes_served": "Metro Rapid Transit", "multimodal": false, "dep_bus": 0, "dep_rapid_transit": 1896, "dep_commuter_rail": 0, "weekly_departures": 1896, "Count": 1 }, "geometry": { "type": "Point", "coordinates": [ 232161.629447557934327, 898151.742840143968351 ] } },
{ "type": "Feature", "properties": { "stop_id": "place-mlmnl", "stop_name": "Malden Center", "municipality": "Malden", "station_type": "Metro Rapid Transit", "modes_served": "Metro Rapid Transit; Commuter Rail; Bus", "multimodal": true, "dep_bus": 2732, "dep_rapid_transit": 2932, "dep_commuter_rail": 242, "weekly_departures": 5906, "Count": 1 }, "geometry": { "type": "Point", "coordinates": [ 235047.51939476368716, 908544.396048118942417 ] } },
{ "type": "Feature", "properties": { "stop_id": "place-newtn", "stop_name": "Newton Highlands", "municipality": "Newton", "station_type": "Metro Rapid Transit", "modes_served": "Metro Rapid Transit; Bus", "multimodal": true, "dep_bus": 239, "dep_rapid_transit": 1838, "dep_commuter_rail": 0, "weekly_departures": 2077, "Count": 1 }, "geometry": { "type": "Point", "coordinates": [ 224274.410473871423164, 896918.89914471283555 ] } },
{ "type": "Feature", "properties": { "stop_id": "place-newto", "stop_name": "Newton Centre", "municipality": "Newton", "station_type": "Metro Rapid Transit", "modes_served": "Metro Rapid Transit", "multimodal": false, "dep_bus": 0, "dep_rapid_transit": 1838, "dep_commuter_rail": 0, "weekly_departures": 1838, "Count": 1 }, "geometry": { "type": "Point", "coordinates": [ 225350.976597501052311, 897707.121920564793982 ] } },
{ "type": "Feature", "properties": { "stop_id": "place-north", "stop_name": "North Station", "municipality": "Boston", "station_type": "Metro Rapid Transit", "modes_served": "Metro Rapid Transit; Commuter Rail", "multimodal": true, "dep_bus": 0, "dep_rapid_transit": 6704, "dep_commuter_rail": 549, "weekly_departures": 7253, "Count": 1 }, "geometry": { "type": "Point", "coordinates": [ 236137.380556002142839, 901767.984122384921648 ] } },
{ "type": "Feature", "properties": { "stop_id": "place-nqncy", "stop_name": "North Quincy", "municipality": "Quincy", "station_type": "Metro Rapid Transit", "modes_served": "Metro Rapid Transit; Bus", "multimodal": true, "dep_bus": 516, "dep_rapid_transit": 1494, "dep_commuter_rail": 0, "weekly_departures": 2010, "Count": 1 }, "geometry": { "type": "Point", "coordinates": [ 238804.439432326529641, 891751.686232945765369 ] } },
{ "type": "Feature", "properties": { "stop_id": "place-nuniv", "stop_name": "Northeastern University", "municipality": "Boston", "station_type": "Metro Rapid Transit", "modes_served": "Metro Rapid Transit", "multimodal": false, "dep_bus": 0, "dep_rapid_transit": 1896, "dep_commuter_rail": 0, "weekly_departures": 1896, "Count": 1 }, "geometry": { "type": "Point", "coordinates": [ 233884.334340722882189, 898960.260078141465783 ] } },
{ "type": "Feature", "properties": { "stop_id": "place-ogmnl", "stop_name": "Oak Grove", "municipality": "Malden", "station_type": "Metro Rapid Transit", "modes_served": "Metro Rapid Transit; Commuter Rail; Bus", "multimodal": true, "dep_bus": 379, "dep_rapid_transit": 1466, "dep_commuter_rail": 242, "weekly_departures": 2087, "Count": 1 }, "geometry": { "type": "Point", "coordinates": [ 235289.852106841717614, 909661.742466264055111 ] } },
{ "type": "Feature", "properties": { "stop_id": "place-pktrm", "stop_name": "Park Street", "municipality": "Boston", "station_type": "Metro Rapid Transit", "modes_served": "Metro Rapid Transit", "multimodal": false, "dep_bus": 0, "dep_rapid_transit": 10404, "dep_commuter_rail": 0, "weekly_departures": 10404, "Count": 1 }, "geometry": { "type": "Point", "coordinates": [ 236049.203820334485499, 900747.610597497550771 ] } },
{ "type": "Feature", "properties": { "stop_id": "place-portr", "stop_name": "Porter", "municipality": "Cambridge", "station_type": "Metro Rapid Transit", "modes_served": "Metro Rapid Transit; Commuter Rail", "multimodal": true, "dep_bus": 0, "dep_rapid_transit": 3002, "dep_commuter_rail": 222, "weekly_departures": 3224, "Count": 1 }, "geometry": { "type": "Point", "coordinates": [ 231360.138926462968811, 904280.177020573872142 ] } },
{ "type": "Feature", "properties": { "stop_id": "place-prmnl", "stop_name": "Prudential", "municipality": "Boston", "station_type": "Metro Rapid Transit", "modes_served": "Metro Rapid Transit", "multimodal": false, "dep_bus": 0, "dep_rapid_transit": 1896, "dep_commuter_rail": 0, "weekly_departures": 1896, "Count": 1 }, "geometry": { "type": "Point", "coordinates": [ 234467.411658109544078, 899537.255745912203565 ] } },
{ "type": "Feature", "properties": { "stop_id": "place-qamnl", "stop_name": "Quincy Adams", "municipality": "Quincy", "station_type": "Metro Rapid Transit", "modes_served": "Metro Rapid Transit; Bus", "multimodal": true, "dep_bus": 321, "dep_rapid_transit": 1494, "dep_commuter_rail": 0, "weekly_departures": 1815, "Count": 1 }, "geometry": { "type": "Point", "coordinates": [ 240681.538505797710968, 887109.973860304919071 ] } },
{ "type": "Feature", "properties": { "stop_id": "place-qnctr", "stop_name": "Quincy Center", "municipality": "Quincy", "station_type": "Metro Rapid Transit", "modes_served": "Metro Rapid Transit; Commuter Rail; Bus", "multimodal": true, "dep_bus": 2133, "dep_rapid_transit": 1494, "dep_commuter_rail": 491, "weekly_departures": 4118, "Count": 1 }, "geometry": { "type": "Point", "coordinates": [ 240813.631208326522028, 889156.535305633791722 ] } },
{ "type": "Feature", "properties": { "stop_id": "place-rcmnl", "stop_name": "Roxbury Crossing", "municipality": "Boston", "station_type": "Metro Rapid Transit", "modes_served": "Metro Rapid Transit", "multimodal": false, "dep_bus": 0, "dep_rapid_transit": 2932, "dep_commuter_rail": 0, "weekly_departures": 2932, "Count": 1 }, "geometry": { "type": "Point", "coordinates": [ 233341.502469447965268, 897957.522955475840718 ] } },
{ "type": "Feature", "properties": { "stop_id": "place-river", "stop_name": "Riverside", "municipality": "Newton", "station_type": "Metro Rapid Transit", "modes_served": "Metro Rapid Transit; Bus", "multimodal": true, "dep_bus": 35, "dep_rapid_transit": 919, "dep_commuter_rail": 0, "weekly_departures": 954, "Count": 1 }, "geometry": { "type": "Point", "coordinates": [ 220380.960437314963201, 898569.461053469916806 ] } },
{ "type": "Feature", "properties": { "stop_id": "place-rsmnl", "stop_name": "Reservoir", "municipality": "Brookline", "station_type": "Metro Rapid Transit", "modes_served": "Metro Rapid Transit; Bus", "multimodal": true, "dep_bus": 562, "dep_rapid_transit": 1843, "dep_commuter_rail": 0, "weekly_departures": 2405, "Count": 1 }, "geometry": { "type": "Point", "coordinates": [ 228946.465896923502441, 898348.037009950960055 ] } },
{ "type": "Feature", "properties": { "stop_id": "place-rugg", "stop_name": "Ruggles", "municipality": "Boston", "station_type": "Metro Rapid Transit", "modes_served": "Metro Rapid Transit; Commuter Rail; Bus", "multimodal": true, "dep_bus": 6302, "dep_rapid_transit": 2932, "dep_commuter_rail": 772, "weekly_departures": 10006, "Count": 1 }, "geometry": { "type": "Point", "coordinates": [ 233873.715635856060544, 898513.232910810038447 ] } },
{ "type": "Feature", "properties": { "stop_id": "place-rvrwy", "stop_name": "Riverway", "municipality": "Boston", "station_type": "Metro Rapid Transit", "modes_served": "Metro Rapid Transit", "multimodal": false, "dep_bus": 0, "dep_rapid_transit": 1896, "dep_commuter_rail": 0, "weekly_departures": 1896, "Count": 1 }, "geometry": { "type": "Point", "coordinates": [ 231983.143497269658837, 897983.090774686308578 ] } },
{ "type": "Feature", "properties": { "stop_id": "place-sbmnl", "stop_name": "Stony Brook", "municipality": "Boston", "station_type": "Metro Rapid Transit", "modes_served": "Metro Rapid Transit", "multimodal": false, "dep_bus": 0, "dep_rapid_transit": 2932, "dep_commuter_rail": 0, "weekly_departures": 2932, "Count": 1 }, "geometry": { "type": "Point", "coordinates": [ 232623.87771987519227, 896361.865728496108204 ] } },
{ "type": "Feature", "properties": { "stop_id": "place-shmnl", "stop_name": "Savin Hill", "municipality": "Boston", "station_type": "Metro Rapid Transit", "modes_served": "Metro Rapid Transit", "multimodal": false, "dep_bus": 0, "dep_rapid_transit": 1508, "dep_commuter_rail": 0, "weekly_departures": 1508, "Count": 1 }, "geometry": { "type": "Point", "coordinates": [ 236824.549737873545382, 895741.473197288578376 ] } },
{ "type": "Feature", "properties": { "stop_id": "place-smary", "stop_name": "Saint Mary's Street", "municipality": "Brookline", "station_type": "Metro Rapid Transit", "modes_served": "Metro Rapid Transit", "multimodal": false, "dep_bus": 0, "dep_rapid_transit": 1858, "dep_commuter_rail": 0, "weekly_departures": 1858, "Count": 1 }, "geometry": { "type": "Point", "coordinates": [ 232353.135101082647452, 899572.080318956635892 ] } },
{ "type": "Feature", "properties": { "stop_id": "place-smmnl", "stop_name": "Shawmut", "municipality": "Boston", "station_type": "Metro Rapid Transit", "modes_served": "Metro Rapid Transit", "multimodal": false, "dep_bus": 0, "dep_rapid_transit": 1508, "dep_commuter_rail": 0, "weekly_departures": 1508, "Count": 1 }, "geometry": { "type": "Point", "coordinates": [ 235811.965368370874785, 893718.64388540876098 ] } },
{ "type": "Feature", "properties": { "stop_id": "place-sougr", "stop_name": "South Street", "municipality": "Boston", "station_type": "Metro Rapid Transit", "modes_served": "Metro Rapid Transit", "multimodal": false, "dep_bus": 0, "dep_rapid_transit": 1800, "dep_commuter_rail": 0, "weekly_departures": 1800, "Count": 1 }, "geometry": { "type": "Point", "coordinates": [ 228210.746643942926312, 898846.225786173366942 ] } },
{ "type": "Feature", "properties": { "stop_id": "place-spmnl", "stop_name": "Science Park/West End", "municipality": "Boston", "station_type": "Metro Rapid Transit", "modes_served": "Metro Rapid Transit", "multimodal": false, "dep_bus": 0, "dep_rapid_transit": 3772, "dep_commuter_rail": 0, "weekly_departures": 3772, "Count": 1 }, "geometry": { "type": "Point", "coordinates": [ 235611.569802889949642, 901886.041494276607409 ] } },
{ "type": "Feature", "properties": { "stop_id": "place-sstat", "stop_name": "South Station", "municipality": "Boston", "station_type": "Metro Rapid Transit", "modes_served": "Metro Rapid Transit; Commuter Rail; Bus", "multimodal": true, "dep_bus": 2689, "dep_rapid_transit": 3002, "dep_commuter_rail": 1019, "weekly_departures": 6710, "Count": 1 }, "geometry": { "type": "Point", "coordinates": [ 236643.267998113180511, 900292.597089363494888 ] } },
{ "type": "Feature", "properties": { "stop_id": "place-state", "stop_name": "State", "municipality": "Boston", "station_type": "Metro Rapid Transit", "modes_served": "Metro Rapid Transit", "multimodal": false, "dep_bus": 0, "dep_rapid_transit": 5628, "dep_commuter_rail": 0, "weekly_departures": 5628, "Count": 1 }, "geometry": { "type": "Point", "coordinates": [ 236445.296720095066121, 901036.568777062231675 ] } },
{ "type": "Feature", "properties": { "stop_id": "place-sthld", "stop_name": "Sutherland Road", "municipality": "Boston", "station_type": "Metro Rapid Transit", "modes_served": "Metro Rapid Transit", "multimodal": false, "dep_bus": 0, "dep_rapid_transit": 1800, "dep_commuter_rail": 0, "weekly_departures": 1800, "Count": 1 }, "geometry": { "type": "Point", "coordinates": [ 229154.102387302991701, 899073.784890362294391 ] } },
{ "type": "Feature", "properties": { "stop_id": "place-stpul", "stop_name": "Saint Paul Street", "municipality": "Brookline", "station_type": "Metro Rapid Transit", "modes_served": "Metro Rapid Transit", "multimodal": false, "dep_bus": 0, "dep_rapid_transit": 1858, "dep_commuter_rail": 0, "weekly_departures": 1858, "Count": 1 }, "geometry": { "type": "Point", "coordinates": [ 231559.819146938301856, 899274.450985156232491 ] } },
{ "type": "Feature", "properties": { "stop_id": "place-sull", "stop_name": "Sullivan Square", "municipality": "Boston", "station_type": "Metro Rapid Transit", "modes_served": "Metro Rapid Transit; Bus", "multimodal": true, "dep_bus": 3465, "dep_rapid_transit": 2932, "dep_commuter_rail": 0, "weekly_departures": 6397, "Count": 1 }, "geometry": { "type": "Point", "coordinates": [ 234833.688176350231515, 903805.021987062180415 ] } },
{ "type": "Feature", "properties": { "stop_id": "place-sumav", "stop_name": "Summit Avenue", "municipality": "Brookline", "station_type": "Metro Rapid Transit", "modes_served": "Metro Rapid Transit", "multimodal": false, "dep_bus": 0, "dep_rapid_transit": 1858, "dep_commuter_rail": 0, "weekly_departures": 1858, "Count": 1 }, "geometry": { "type": "Point", "coordinates": [ 230851.185082393698394, 899025.046118865255266 ] } },
{ "type": "Feature", "properties": { "stop_id": "place-symcl", "stop_name": "Symphony", "municipality": "Boston", "station_type": "Metro Rapid Transit", "modes_served": "Metro Rapid Transit", "multimodal": false, "dep_bus": 0, "dep_rapid_transit": 1896, "dep_commuter_rail": 0, "weekly_departures": 1896, "Count": 1 }, "geometry": { "type": "Point", "coordinates": [ 234192.114430798159447, 899215.674036771059036 ] } },
{ "type": "Feature", "properties": { "stop_id": "place-tapst", "stop_name": "Tappan Street", "municipality": "Brookline", "station_type": "Metro Rapid Transit", "modes_served": "Metro Rapid Transit", "multimodal": false, "dep_bus": 0, "dep_rapid_transit": 1858, "dep_commuter_rail": 0, "weekly_departures": 1858, "Count": 1 }, "geometry": { "type": "Point", "coordinates": [ 229773.607466118817683, 898725.933032560395077 ] } },
{ "type": "Feature", "properties": { "stop_id": "place-tumnl", "stop_name": "Tufts Medical Center", "municipality": "Boston", "station_type": "Metro Rapid Transit", "modes_served": "Metro Rapid Transit", "multimodal": false, "dep_bus": 0, "dep_rapid_transit": 2932, "dep_commuter_rail": 0, "weekly_departures": 2932, "Count": 1 }, "geometry": { "type": "Point", "coordinates": [ 235930.029353345249547, 899999.11172132671345 ] } },
{ "type": "Feature", "properties": { "stop_id": "place-unsqu", "stop_name": "Union Square", "municipality": "Somerville", "station_type": "Metro Rapid Transit", "modes_served": "Metro Rapid Transit", "multimodal": false, "dep_bus": 0, "dep_rapid_transit": 930, "dep_commuter_rail": 0, "weekly_departures": 930, "Count": 1 }, "geometry": { "type": "Point", "coordinates": [ 233374.114342292858055, 903063.03951563173905 ] } },
{ "type": "Feature", "properties": { "stop_id": "place-valrd", "stop_name": "Valley Road", "municipality": "Milton", "station_type": "Metro Rapid Transit", "modes_served": "Metro Rapid Transit", "multimodal": false, "dep_bus": 0, "dep_rapid_transit": 1692, "dep_commuter_rail": 0, "weekly_departures": 1692, "Count": 1 }, "geometry": { "type": "Point", "coordinates": [ 234538.598959969065618, 890959.917741526267491 ] } },
{ "type": "Feature", "properties": { "stop_id": "place-waban", "stop_name": "Waban", "municipality": "Newton", "station_type": "Metro Rapid Transit", "modes_served": "Metro Rapid Transit", "multimodal": false, "dep_bus": 0, "dep_rapid_transit": 1838, "dep_commuter_rail": 0, "weekly_departures": 1838, "Count": 1 }, "geometry": { "type": "Point", "coordinates": [ 222204.25060118874535, 897296.825344722601585 ] } },
{ "type": "Feature", "properties": { "stop_id": "place-wascm", "stop_name": "Washington Street", "municipality": "Boston", "station_type": "Metro Rapid Transit", "modes_served": "Metro Rapid Transit", "multimodal": false, "dep_bus": 0, "dep_rapid_transit": 1800, "dep_commuter_rail": 0, "weekly_departures": 1800, "Count": 1 }, "geometry": { "type": "Point", "coordinates": [ 229429.022784894594224, 899324.854581372346729 ] } },
{ "type": "Feature", "properties": { "stop_id": "place-welln", "stop_name": "Wellington", "municipality": "Medford", "station_type": "Metro Rapid Transit", "modes_served": "Metro Rapid Transit; Bus", "multimodal": true, "dep_bus": 1755, "dep_rapid_transit": 2932, "dep_commuter_rail": 0, "weekly_departures": 4687, "Count": 1 }, "geometry": { "type": "Point", "coordinates": [ 234816.310621797980275, 905848.233612997224554 ] } },
{ "type": "Feature", "properties": { "stop_id": "place-wimnl", "stop_name": "Wood Island", "municipality": "Boston", "station_type": "Metro Rapid Transit", "modes_served": "Metro Rapid Transit; Bus", "multimodal": true, "dep_bus": 600, "dep_rapid_transit": 2696, "dep_commuter_rail": 0, "weekly_departures": 3296, "Count": 1 }, "geometry": { "type": "Point", "coordinates": [ 239293.751492502749898, 903347.029189985827543 ] } },
{ "type": "Feature", "properties": { "stop_id": "place-wlsta", "stop_name": "Wollaston", "municipality": "Quincy", "station_type": "Metro Rapid Transit", "modes_served": "Metro Rapid Transit", "multimodal": false, "dep_bus": 0, "dep_rapid_transit": 1494, "dep_commuter_rail": 0, "weekly_departures": 1494, "Count": 1 }, "geometry": { "type": "Point", "coordinates": [ 239572.601272863976192, 890782.823939811205491 ] } },
{ "type": "Feature", "properties": { "stop_id": "place-wondl", "stop_name": "Wonderland", "municipality": "Revere", "station_type": "Metro Rapid Transit", "modes_served": "Metro Rapid Transit; Bus", "multimodal": true, "dep_bus": 2111, "dep_rapid_transit": 1342, "dep_commuter_rail": 0, "weekly_departures": 3453, "Count": 1 }, "geometry": { "type": "Point", "coordinates": [ 241842.189662881253753, 907114.0186098117847 ] } },
{ "type": "Feature", "properties": { "stop_id": "place-woodl", "stop_name": "Woodland", "municipality": "Newton", "station_type": "Metro Rapid Transit", "modes_served": "Metro Rapid Transit", "multimodal": false, "dep_bus": 0, "dep_rapid_transit": 1838, "dep_commuter_rail": 0, "weekly_departures": 1838, "Count": 1 }, "geometry": { "type": "Point", "coordinates": [ 221150.743671865959186, 898077.444028612342663 ] } },
{ "type": "Feature", "properties": { "stop_id": "place-wrnst", "stop_name": "Warren Street", "municipality": "Boston", "station_type": "Metro Rapid Transit", "modes_served": "Metro Rapid Transit", "multimodal": false, "dep_bus": 0, "dep_rapid_transit": 1800, "dep_commuter_rail": 0, "weekly_departures": 1800, "Count": 1 }, "geometry": { "type": "Point", "coordinates": [ 229624.355634937091963, 899823.190928513882682 ] } },
{ "type": "Feature", "properties": { "stop_id": "place-mvbcl", "stop_name": "Maverick", "municipality": "Boston", "station_type": "Metro Rapid Transit", "modes_served": "Metro Rapid Transit; Bus", "multimodal": true, "dep_bus": 1375, "dep_rapid_transit": 2696, "dep_commuter_rail": 0, "weekly_departures": 4071, "Count": 1 }, "geometry": { "type": "Point", "coordinates": [ 237927.652368791925255, 902170.860650862916373 ] } },
{ "type": "Feature", "properties": { "stop_id": "place-orhte", "stop_name": "Orient Heights", "municipality": "Boston", "station_type": "Metro Rapid Transit", "modes_served": "Metro Rapid Transit; Bus", "multimodal": true, "dep_bus": 888, "dep_rapid_transit": 2676, "dep_commuter_rail": 0, "weekly_departures": 3564, "Count": 1 }, "geometry": { "type": "Point", "coordinates": [ 240782.061056858859956, 904158.281948896823451 ] } },
{ "type": "Feature", "properties": { "stop_id": "place-aqucl", "stop_name": "Aquarium", "municipality": "Boston", "station_type": "Metro Rapid Transit", "modes_served": "Metro Rapid Transit", "multimodal": false, "dep_bus": 0, "dep_rapid_transit": 2696, "dep_commuter_rail": 0, "weekly_departures": 2696, "Count": 1 }, "geometry": { "type": "Point", "coordinates": [ 236934.656085008464288, 901128.653085196623579 ] } },
{ "type": "Feature", "properties": { "stop_id": "place-bmmnl", "stop_name": "Beachmont", "municipality": "Revere", "station_type": "Metro Rapid Transit", "modes_served": "Metro Rapid Transit", "multimodal": false, "dep_bus": 0, "dep_rapid_transit": 2670, "dep_commuter_rail": 0, "weekly_departures": 2670, "Count": 1 }, "geometry": { "type": "Point", "coordinates": [ 241797.458088203362422, 905350.02547054970637 ] } },
{ "type": "Feature", "properties": { "stop_id": "place-bomnl", "stop_name": "Bowdoin", "municipality": "Boston", "station_type": "Metro Rapid Transit", "modes_served": "Metro Rapid Transit", "multimodal": false, "dep_bus": 0, "dep_rapid_transit": 1348, "dep_commuter_rail": 0, "weekly_departures": 1348, "Count": 1 }, "geometry": { "type": "Point", "coordinates": [ 236078.251533388072858, 901299.818360010161996 ] } },
{ "type": "Feature", "properties": { "stop_id": "place-rbmnl", "stop_name": "Revere Beach", "municipality": "Revere", "station_type": "Metro Rapid Transit", "modes_served": "Metro Rapid Transit", "multimodal": false, "dep_bus": 0, "dep_rapid_transit": 2670, "dep_commuter_rail": 0, "weekly_departures": 2670, "Count": 1 }, "geometry": { "type": "Point", "coordinates": [ 241773.032208581164014, 906494.113416268490255 ] } },
{ "type": "Feature", "properties": { "stop_id": "place-sdmnl", "stop_name": "Suffolk Downs", "municipality": "Boston", "station_type": "Metro Rapid Transit", "modes_served": "Metro Rapid Transit", "multimodal": false, "dep_bus": 0, "dep_rapid_transit": 2670, "dep_commuter_rail": 0, "weekly_departures": 2670, "Count": 1 }, "geometry": { "type": "Point", "coordinates": [ 241406.559564070834313, 904565.598485306138173 ] } }
]
}
