{
"type": "FeatureCollection",
"name": "schools_cambridge",
"crs": { "type": "name", "properties": { "name": "urn:ogc:def:crs:EPSG::6491" } },
"features": [
{ "type": "Feature", "properties": { "company": "SOCRATIC SUMMER ACADEMY", "naics": 61111007, "naics6": "611110", "naics_desc": "ELEMENTARY & SECONDARY SCHOOLS", "employees": 12, "category": "school", "weights": 100 }, "geometry": { "type": "Point", "coordinates": [ 231334.438347635383252, 903267.02660731121432 ] } },
{ "type": "Feature", "properties": { "company": "CAMBRIDGE PUBLIC SCHOOLS", "naics": 61111007, "naics6": "611110", "naics_desc": "ELEMENTARY & SECONDARY SCHOOLS", "employees": 40, "category": "school", "weights": 100 }, "geometry": { "type": "Point", "coordinates": [ 231563.827993096667342, 903608.508951025083661 ] } },
{ "type": "Feature", "properties": { "company": "SCHOOL OF GROOVE", "naics": 61111007, "naics6": "611110", "naics_desc": "ELEMENTARY & SECONDARY SCHOOLS", "employees": 40, "category": "school", "weights": 100 }, "geometry": { "type": "Point", "coordinates": [ 234163.101972887176089, 902453.568193963496014 ] } },
{ "type": "Feature", "properties": { "company": "FULD GILAD HERRING ACADEMY", "naics": 61111007, "naics6": "611110", "naics_desc": "ELEMENTARY & SECONDARY SCHOOLS", "employees": 12, "category": "school", "weights": 100 }, "geometry": { "type": "Point", "coordinates": [ 234430.835744733427418, 901973.350632695714012 ] } },
{ "type": "Feature", "properties": { "company": "LONGY SCHOOL OF MASS", "naics": 61111007, "naics6": "611110", "naics_desc": "ELEMENTARY & SECONDARY SCHOOLS", "employees": 38, "category": "school", "weights": 100 }, "geometry": { "type": "Point", "coordinates": [ 230961.104915454081492, 903270.925087871262804 ] } },
{ "type": "Feature", "properties": { "company": "SHADY HILL SCHOOL", "naics": 61111007, "naics6": "611110", "naics_desc": "ELEMENTARY & SECONDARY SCHOOLS", "employees": 170, "category": "school", "weights": 100 }, "geometry": { "type": "Point", "coordinates": [ 231416.456151500344276, 902918.940242286305875 ] } },
{ "type": "Feature", "properties": { "company": "SNAPDRAGON MONTESSORI SCH INC", "naics": 61111003, "naics6": "611110", "naics_desc": "ELEMENTARY & SECONDARY SCHOOLS", "employees": 18, "category": "school", "weights": 100 }, "geometry": { "type": "Point", "coordinates": [ 233168.728963173489319, 902588.872790289577097 ] } },
{ "type": "Feature", "properties": { "company": "HARVARD LAW SCHOOL", "naics": 61111007, "naics6": "611110", "naics_desc": "ELEMENTARY & SECONDARY SCHOOLS", "employees": 37, "category": "school", "weights": 100 }, "geometry": { "type": "Point", "coordinates": [ 231416.456151500344276, 902918.940242286305875 ] } },
{ "type": "Feature", "properties": { "company": "MIT SLOAN SCHOOL OF MANAGEMENT", "naics": 61111007, "naics6": "611110", "naics_desc": "ELEMENTARY & SECONDARY SCHOOLS", "employees": 1000, "category": "school", "weights": 100 }, "geometry": { "type": "Point", "coordinates": [ 234418.058075883367565, 901269.163250093348324 ] } },
{ "type": "Feature", "properties": { "company": "JOHN M TOBIN MONTESSORI SCHOOL", "naics": 61111007, "naics6": "611110", "naics_desc": "ELEMENTARY & SECONDARY SCHOOLS", "employees": 80, "category": "school", "weights": 100 }, "geometry": { "type": "Point", "coordinates": [ 229667.805452806613175, 903835.175500646466389 ] } },
{ "type": "Feature", "properties": { "company": "CAMBRIDGEPORT SCHOOL", "naics": 61111007, "naics6": "611110", "naics_desc": "ELEMENTARY & SECONDARY SCHOOLS", "employees": 60, "category": "school", "weights": 100 }, "geometry": { "type": "Point", "coordinates": [ 233124.58401734821382, 902169.232897528097965 ] } },
{ "type": "Feature", "properties": { "company": "CAMBRIDGE PUBLIC SCHOOLS", "naics": 61111007, "naics6": "611110", "naics_desc": "ELEMENTARY & SECONDARY SCHOOLS", "employees": 12, "category": "school", "weights": 100 }, "geometry": { "type": "Point", "coordinates": [ 228609.328313070524018, 903120.439142878865823 ] } },
{ "type": "Feature", "properties": { "company": "BB & N MIDDLE SCHOOL", "naics": 61111007, "naics6": "611110", "naics_desc": "ELEMENTARY & SECONDARY SCHOOLS", "employees": 26, "category": "school", "weights": 100 }, "geometry": { "type": "Point", "coordinates": [ 230394.347640429768944, 903439.732657102751546 ] } },
{ "type": "Feature", "properties": { "company": "PROSPECT HILL CHARTER SCHOOL", "naics": 61111007, "naics6": "611110", "naics_desc": "ELEMENTARY & SECONDARY SCHOOLS", "employees": 70, "category": "school", "weights": 100 }, "geometry": { "type": "Point", "coordinates": [ 232873.661521707806969, 901964.114740867749788 ] } },
{ "type": "Feature", "properties": { "company": "FLETCHER SCHOOL", "naics": 61111007, "naics6": "611110", "naics_desc": "ELEMENTARY & SECONDARY SCHOOLS", "employees": 22, "category": "school", "weights": 100 }, "geometry": { "type": "Point", "coordinates": [ 233124.58401734821382, 902169.232897528097965 ] } },
{ "type": "Feature", "properties": { "company": "WILD FLOWER MONTESSORI SCHOOL", "naics": 61111007, "naics6": "611110", "naics_desc": "ELEMENTARY & SECONDARY SCHOOLS", "employees": 12, "category": "school", "weights": 100 }, "geometry": { "type": "Point", "coordinates": [ 232581.280849171569571, 902293.987923365086317 ] } },
{ "type": "Feature", "properties": { "company": "MARTIN LUTHER KING AFTER SCH", "naics": 61111007, "naics6": "611110", "naics_desc": "ELEMENTARY & SECONDARY SCHOOLS", "employees": 3, "category": "school", "weights": 100 }, "geometry": { "type": "Point", "coordinates": [ 231880.627843592665158, 901903.777280322741717 ] } },
{ "type": "Feature", "properties": { "company": "ASTER MONTESSORI SCHOOL", "naics": 61111007, "naics6": "611110", "naics_desc": "ELEMENTARY & SECONDARY SCHOOLS", "employees": 12, "category": "school", "weights": 100 }, "geometry": { "type": "Point", "coordinates": [ 233640.29259455713327, 902547.572362796985544 ] } },
{ "type": "Feature", "properties": { "company": "MARTIN LUTHER KING JR OPEN SCH", "naics": 61111007, "naics6": "611110", "naics_desc": "ELEMENTARY & SECONDARY SCHOOLS", "employees": 60, "category": "school", "weights": 100 }, "geometry": { "type": "Point", "coordinates": [ 233658.957602417620365, 902451.023599911481142 ] } },
{ "type": "Feature", "properties": { "company": "CAMBRIDGE FRIENDS SCHOOL", "naics": 61111007, "naics6": "611110", "naics_desc": "ELEMENTARY & SECONDARY SCHOOLS", "employees": 55, "category": "school", "weights": 100 }, "geometry": { "type": "Point", "coordinates": [ 230392.329527267807862, 904210.608186181401834 ] } },
{ "type": "Feature", "properties": { "company": "AGASSIZ SCHOOL", "naics": 61111007, "naics6": "611110", "naics_desc": "ELEMENTARY & SECONDARY SCHOOLS", "employees": 14, "category": "school", "weights": 100 }, "geometry": { "type": "Point", "coordinates": [ 231477.225574159121606, 903601.566695418907329 ] } },
{ "type": "Feature", "properties": { "company": "PEABODY K-2 AFTER-SCHOOL PRGM", "naics": 61111007, "naics6": "611110", "naics_desc": "ELEMENTARY & SECONDARY SCHOOLS", "employees": 3, "category": "school", "weights": 100 }, "geometry": { "type": "Point", "coordinates": [ 230600.372974817932118, 904673.37626148108393 ] } },
{ "type": "Feature", "properties": { "company": "CAMBRIDGE MATIGNON SCHOOL", "naics": 61111007, "naics6": "611110", "naics_desc": "ELEMENTARY & SECONDARY SCHOOLS", "employees": 30, "category": "school", "weights": 100 }, "geometry": { "type": "Point", "coordinates": [ 230359.887668250972638, 905714.806529685040005 ] } },
{ "type": "Feature", "properties": { "company": "COALITION-SCH EDUCATING BOYS", "naics": 61111007, "naics6": "611110", "naics_desc": "ELEMENTARY & SECONDARY SCHOOLS", "employees": 22, "category": "school", "weights": 100 }, "geometry": { "type": "Point", "coordinates": [ 234188.744267259578919, 901432.439363662619144 ] } },
{ "type": "Feature", "properties": { "company": "WILD ROSE MONTESSORI SCH INC", "naics": 61111007, "naics6": "611110", "naics_desc": "ELEMENTARY & SECONDARY SCHOOLS", "employees": 12, "category": "school", "weights": 100 }, "geometry": { "type": "Point", "coordinates": [ 230654.611358196823858, 904980.412094611092471 ] } },
{ "type": "Feature", "properties": { "company": "GRAHAM & PARKS ELEMENTARY SCH", "naics": 61111007, "naics6": "611110", "naics_desc": "ELEMENTARY & SECONDARY SCHOOLS", "employees": 100, "category": "school", "weights": 100 }, "geometry": { "type": "Point", "coordinates": [ 230981.262445253145415, 903686.11388436681591 ] } },
{ "type": "Feature", "properties": { "company": "ST PETER SCHOOL", "naics": 61111007, "naics6": "611110", "naics_desc": "ELEMENTARY & SECONDARY SCHOOLS", "employees": 23, "category": "school", "weights": 100 }, "geometry": { "type": "Point", "coordinates": [ 230508.75878101948183, 903472.441372342174873 ] } },
{ "type": "Feature", "properties": { "company": "KING OPEN SCHOOL", "naics": 61111007, "naics6": "611110", "naics_desc": "ELEMENTARY & SECONDARY SCHOOLS", "employees": 100, "category": "school", "weights": 100 }, "geometry": { "type": "Point", "coordinates": [ 233658.957602417620365, 902451.023599911481142 ] } },
{ "type": "Feature", "properties": { "company": "FLETCHER COMMUNITY SCHOOL", "naics": 61111007, "naics6": "611110", "naics_desc": "ELEMENTARY & SECONDARY SCHOOLS", "employees": 22, "category": "school", "weights": 100 }, "geometry": { "type": "Point", "coordinates": [ 233288.498506537871435, 901890.757008358370513 ] } },
{ "type": "Feature", "properties": { "company": "TOBIN COMMUNITY SCHOOL", "naics": 61111007, "naics6": "611110", "naics_desc": "ELEMENTARY & SECONDARY SCHOOLS", "employees": 8, "category": "school", "weights": 100 }, "geometry": { "type": "Point", "coordinates": [ 229667.805452806613175, 903835.175500646466389 ] } },
{ "type": "Feature", "properties": { "company": "ACADEMY AT HARVARD SQUARE", "naics": 61111007, "naics6": "611110", "naics_desc": "ELEMENTARY & SECONDARY SCHOOLS", "employees": 5, "category": "school", "weights": 100 }, "geometry": { "type": "Point", "coordinates": [ 231325.987363904685481, 902539.648364759166725 ] } },
{ "type": "Feature", "properties": { "company": "BUCKINGHAM BROWNE-NICHOLS SCH", "naics": 61111007, "naics6": "611110", "naics_desc": "ELEMENTARY & SECONDARY SCHOOLS", "employees": 72, "category": "school", "weights": 100 }, "geometry": { "type": "Point", "coordinates": [ 229994.207164725696202, 902414.316022422164679 ] } },
{ "type": "Feature", "properties": { "company": "FITZGERALD COMMUNITY SCHOOL", "naics": 61111007, "naics6": "611110", "naics_desc": "ELEMENTARY & SECONDARY SCHOOLS", "employees": 25, "category": "school", "weights": 100 }, "geometry": { "type": "Point", "coordinates": [ 230600.372974817932118, 904673.37626148108393 ] } },
{ "type": "Feature", "properties": { "company": "FAYERWEATHER STREET SCHOOL", "naics": 61111007, "naics6": "611110", "naics_desc": "ELEMENTARY & SECONDARY SCHOOLS", "employees": 52, "category": "school", "weights": 100 }, "geometry": { "type": "Point", "coordinates": [ 228468.164284650672926, 904604.760443532839417 ] } },
{ "type": "Feature", "properties": { "company": "COMMUNITY CHARTER SCHOOL", "naics": 61111007, "naics6": "611110", "naics_desc": "ELEMENTARY & SECONDARY SCHOOLS", "employees": 39, "category": "school", "weights": 100 }, "geometry": { "type": "Point", "coordinates": [ 234170.193077098025242, 901994.738109319703653 ] } },
{ "type": "Feature", "properties": { "company": "DR MARTIN LUTHER KING JUNIOR", "naics": 61111007, "naics6": "611110", "naics_desc": "ELEMENTARY & SECONDARY SCHOOLS", "employees": 20, "category": "school", "weights": 100 }, "geometry": { "type": "Point", "coordinates": [ 231880.627843592665158, 901903.777280322741717 ] } },
{ "type": "Feature", "properties": { "company": "KENNEDY LONGFELLOW SCHOOL", "naics": 61111007, "naics6": "611110", "naics_desc": "ELEMENTARY & SECONDARY SCHOOLS", "employees": 12, "category": "school", "weights": 100 }, "geometry": { "type": "Point", "coordinates": [ 234083.283181891223649, 902183.371202602982521 ] } },
{ "type": "Feature", "properties": { "company": "NUVU STUDIO", "naics": 61111007, "naics6": "611110", "naics_desc": "ELEMENTARY & SECONDARY SCHOOLS", "employees": 11, "category": "school", "weights": 100 }, "geometry": { "type": "Point", "coordinates": [ 232847.468131500878371, 901505.906068390468135 ] } },
{ "type": "Feature", "properties": { "company": "VIOLETA MONTESSORI SCHOOL", "naics": 61111007, "naics6": "611110", "naics_desc": "ELEMENTARY & SECONDARY SCHOOLS", "employees": 12, "category": "school", "weights": 100 }, "geometry": { "type": "Point", "coordinates": [ 233075.198333039763384, 902039.260863726260141 ] } },
{ "type": "Feature", "properties": { "company": "MORSE SCHOOL", "naics": 61111007, "naics6": "611110", "naics_desc": "ELEMENTARY & SECONDARY SCHOOLS", "employees": 80, "category": "school", "weights": 100 }, "geometry": { "type": "Point", "coordinates": [ 231908.686608301301021, 900676.826527417520992 ] } },
{ "type": "Feature", "properties": { "company": "MIT SLOAN SCHOOL OF MANAGEMENT", "naics": 61111007, "naics6": "611110", "naics_desc": "ELEMENTARY & SECONDARY SCHOOLS", "employees": 37, "category": "school", "weights": 100 }, "geometry": { "type": "Point", "coordinates": [ 234301.553763897274621, 901222.718272592988797 ] } },
{ "type": "Feature", "properties": { "company": "RINGE SCHOOL OF TECH ART", "naics": 61111007, "naics6": "611110", "naics_desc": "ELEMENTARY & SECONDARY SCHOOLS", "employees": 600, "category": "school", "weights": 100 }, "geometry": { "type": "Point", "coordinates": [ 231965.475931647815742, 902735.249804017948918 ] } },
{ "type": "Feature", "properties": { "company": "SNOWDROP MONTESSORI SCHOOL INC", "naics": 61111003, "naics6": "611110", "naics_desc": "ELEMENTARY & SECONDARY SCHOOLS", "employees": 18, "category": "school", "weights": 100 }, "geometry": { "type": "Point", "coordinates": [ 232555.742555246280972, 902312.752830924466252 ] } },
{ "type": "Feature", "properties": { "company": "CAMBRIDGE PUBLIC SCHOOLS", "naics": 61111007, "naics6": "611110", "naics_desc": "ELEMENTARY & SECONDARY SCHOOLS", "employees": 200, "category": "school", "weights": 100 }, "geometry": { "type": "Point", "coordinates": [ 233658.957602417620365, 902451.023599911481142 ] } },
{ "type": "Feature", "properties": { "company": "PEABODY ELEMENTARY SCHOOL", "naics": 61111007, "naics6": "611110", "naics_desc": "ELEMENTARY & SECONDARY SCHOOLS", "employees": 103, "category": "school", "weights": 100 }, "geometry": { "type": "Point", "coordinates": [ 230600.372974817932118, 904673.37626148108393 ] } },
{ "type": "Feature", "properties": { "company": "PEABODY ELEMENTARY SCHOOL", "naics": 61111007, "naics6": "611110", "naics_desc": "ELEMENTARY & SECONDARY SCHOOLS", "employees": 60, "category": "school", "weights": 100 }, "geometry": { "type": "Point", "coordinates": [ 230981.262445253145415, 903686.11388436681591 ] } },
{ "type": "Feature", "properties": { "company": "CAMBRIDGE MONTESSORI SCHOOL", "naics": 61111007, "naics6": "611110", "naics_desc": "ELEMENTARY & SECONDARY SCHOOLS", "employees": 12, "category": "school", "weights": 100 }, "geometry": { "type": "Point", "coordinates": [ 230290.73105917070643, 904283.703256816486828 ] } },
{ "type": "Feature", "properties": { "company": "KENNEDY COMMUNITY SCHOOL", "naics": 61111007, "naics6": "611110", "naics_desc": "ELEMENTARY & SECONDARY SCHOOLS", "employees": 50, "category": "school", "weights": 100 }, "geometry": { "type": "Point", "coordinates": [ 234083.283181891223649, 902183.371202602982521 ] } },
{ "type": "Feature", "properties": { "company": "FLETCHER MAYNARD ACADEMY", "naics": 61111007, "naics6": "611110", "naics_desc": "ELEMENTARY & SECONDARY SCHOOLS", "employees": 80, "category": "school", "weights": 100 }, "geometry": { "type": "Point", "coordinates": [ 233288.498506537871435, 901890.757008358370513 ] } },
{ "type": "Feature", "properties": { "company": "HARVARD LAW SCHOOL", "naics": 61111007, "naics6": "611110", "naics_desc": "ELEMENTARY & SECONDARY SCHOOLS", "employees": 12, "category": "school", "weights": 100 }, "geometry": { "type": "Point", "coordinates": [ 231416.456151500344276, 902918.940242286305875 ] } },
{ "type": "Feature", "properties": { "company": "CAMBRIDGE MONTESSORI SCHOOL", "naics": 61111007, "naics6": "611110", "naics_desc": "ELEMENTARY & SECONDARY SCHOOLS", "employees": 15, "category": "school", "weights": 100 }, "geometry": { "type": "Point", "coordinates": [ 230197.720333869947353, 904466.582322283182293 ] } },
{ "type": "Feature", "properties": { "company": "JAMES F FARR ACADEMY INC", "naics": 61111010, "naics6": "611110", "naics_desc": "ELEMENTARY & SECONDARY SCHOOLS", "employees": 22, "category": "school", "weights": 100 }, "geometry": { "type": "Point", "coordinates": [ 232569.568266179034254, 901480.175212621688843 ] } },
{ "type": "Feature", "properties": { "company": "NORTH CAMBRIDGE CATHOLIC HIGH", "naics": 61111007, "naics6": "611110", "naics_desc": "ELEMENTARY & SECONDARY SCHOOLS", "employees": 12, "category": "school", "weights": 100 }, "geometry": { "type": "Point", "coordinates": [ 230485.709856167261023, 905025.774522532825358 ] } },
{ "type": "Feature", "properties": { "company": "BENJAMIN BANNEKER CHARTER PUBC", "naics": 61111007, "naics6": "611110", "naics_desc": "ELEMENTARY & SECONDARY SCHOOLS", "employees": 70, "category": "school", "weights": 100 }, "geometry": { "type": "Point", "coordinates": [ 230323.977152577630477, 904688.950274293543771 ] } },
{ "type": "Feature", "properties": { "company": "CAMBRIDGE RINDGE & LATIN SCH", "naics": 61111007, "naics6": "611110", "naics_desc": "ELEMENTARY & SECONDARY SCHOOLS", "employees": 350, "category": "school", "weights": 100 }, "geometry": { "type": "Point", "coordinates": [ 231965.475931647815742, 902735.249804017948918 ] } },
{ "type": "Feature", "properties": { "company": "HAGGERTY SCHOOL", "naics": 61111007, "naics6": "611110", "naics_desc": "ELEMENTARY & SECONDARY SCHOOLS", "employees": 50, "category": "school", "weights": 100 }, "geometry": { "type": "Point", "coordinates": [ 228609.328313070524018, 903120.439142878865823 ] } },
{ "type": "Feature", "properties": { "company": "MIT SLOAN SCHOOL OF MANAGEMENT", "naics": 61111007, "naics6": "611110", "naics_desc": "ELEMENTARY & SECONDARY SCHOOLS", "employees": 51, "category": "school", "weights": 100 }, "geometry": { "type": "Point", "coordinates": [ 234349.777128740446642, 901283.713585693622008 ] } },
{ "type": "Feature", "properties": { "company": "CAMBRIDGE PUBLIC SCHOOLS", "naics": 61111007, "naics6": "611110", "naics_desc": "ELEMENTARY & SECONDARY SCHOOLS", "employees": 1, "category": "school", "weights": 100 }, "geometry": { "type": "Point", "coordinates": [ 233724.256420609308407, 902437.34088779904414 ] } },
{ "type": "Feature", "properties": { "company": "BALDWIN ELEMENTARY SCHOOL", "naics": 61111007, "naics6": "611110", "naics_desc": "ELEMENTARY & SECONDARY SCHOOLS", "employees": 39, "category": "school", "weights": 100 }, "geometry": { "type": "Point", "coordinates": [ 231563.827993096667342, 903608.508951025083661 ] } },
{ "type": "Feature", "properties": { "company": "MORSE AFTER SCHOOL", "naics": 61111007, "naics6": "611110", "naics_desc": "ELEMENTARY & SECONDARY SCHOOLS", "employees": 11, "category": "school", "weights": 100 }, "geometry": { "type": "Point", "coordinates": [ 231908.686608301301021, 900676.826527417520992 ] } }
]
}
